{"type":"FeatureCollection","metadata":{"schemaVersion":1,"publisher":"The City of Calgary","title":"Green Line Phase 1 alignment and planned stations","sourceUrl":"https://maps.calgary.ca/greenline/","licenceUrl":"https://data.calgary.ca/stories/s/Open-Calgary-Terms-of-Use/u45n-7awa/","attribution":"Contains information licensed under the Open Government Licence – City of Calgary.","retrievedAt":"2026-09-16T09:15:55.886408Z","statusCheckedAt":"2026-09-16","alignmentUpdatedAt":"2026-09-10T12:13:08.332000Z","stationsUpdatedAt":"2026-09-10T11:39:00.420000Z","statusSources":["https://www.calgary.ca/green-line/about.html","https://www.calgary.ca/green-line/downtown-segment.html"],"sources":{"current-alignment.geojson":{"url":"https://services1.arcgis.com/AVP60cs0Q9PEA8rH/arcgis/rest/services/Approved%20Green%20Line%20Alignment%20with%20elevations/FeatureServer/0/query?where=1%3D1&outFields=OBJECTID,CTP_CLASS,STAGE,PHASE,CREATE_DT_UTC,MOD_DT_UTC&outSR=4326&f=geojson","sha256":"7ac924944e73988599251912d93806a20a74c3391ad5f4fc48c0ecea5db15b34","bytes":73336},"current-alignment-item.json":{"url":"https://www.arcgis.com/sharing/rest/content/items/ea67fac93f054502a8dbdbb21a657513?f=pjson","sha256":"be028dc9e47d6da66456f811c4784155ca6a711a335c2d7edc2da7755ecd2ed6","bytes":2722},"current-alignment-layer.json":{"url":"https://services1.arcgis.com/AVP60cs0Q9PEA8rH/arcgis/rest/services/Approved%20Green%20Line%20Alignment%20with%20elevations/FeatureServer/0?f=pjson","sha256":"4cae85da42ff4c775b675a91b23b9d82b2353dd144924ba1b4c981d038ca62e3","bytes":13182},"current-stations.geojson":{"url":"https://services1.arcgis.com/AVP60cs0Q9PEA8rH/arcgis/rest/services/Green_Line_Stations_for_CSC_Green_Line_Embedded_Web_Map/FeatureServer/0/query?where=1%3D1&outFields=Title,StationType,More_Info,ConstructionStage,Location&outSR=4326&f=geojson","sha256":"e2d0a0f757f7ef446167b2fab79233b091bbd0731b433fe95eab98ab93837a68","bytes":8984},"current-stations-layer.json":{"url":"https://services1.arcgis.com/AVP60cs0Q9PEA8rH/arcgis/rest/services/Green_Line_Stations_for_CSC_Green_Line_Embedded_Web_Map/FeatureServer/0?f=pjson","sha256":"6c31104a7721697707dbf187022f4fac303d20ce43fb462f92de457fa2dbd45a","bytes":19292},"current-webmap.json":{"url":"https://www.arcgis.com/sharing/rest/content/items/e0444d1c2ada4758a7d6ca15caa890a6/data?f=pjson","sha256":"8aea544a0881a0d291dc07b94ef4fff90dd84107ee909340508d7703f05d391c","bytes":193200}},"scope":"Phase 1 only: Shepard to 2 Street SW. Future north and south extensions are not shown. The line and its stations are not operating.","method":"City GeoJSON coordinates retained unchanged in WGS84. Alignment selected by STAGE Southeast or Downtown; stations selected using the current official City web map Phase 1 names. The 2 Street SW information link points to the current Downtown Segment page because the source More_Info link still names the former Centre Street station. No route, entrance or station geometry inferred.","limitations":"Cartographic geometry, not survey-grade, final engineering design, a station entrance, construction footprint or service commitment. Station layer segment labels differ from the project description at Event Centre / Grand Central Station. The alignment item description retains an April 2024 date; its layer data were updated on 10 September 2026 and are used by the current City web map.","counts":{"alignmentFeatures":27,"stationFeatures":11,"features":38}},"features":[{"type":"Feature","id":"alignment-1","properties":{"kind":"alignment","name":"Green Line · Southeast segment","title":"Green Line · Southeast segment","description":"The southeast project is under construction. This line shows the planned alignment, not the exact location of current work. Green Line passenger service has not begun.","status":"Construction underway · not operating","statusCode":"under-construction","date":"2026-09-10","phase":"Phase 1","stage":"Southeast","sourceUrl":"https://www.calgary.ca/green-line/about.html","operational":false,"sourceObjectId":1,"sourceGeometryClass":"CENTRELINE"},"geometry":{"type":"LineString","coordinates":[[-114.026900361115,51.0065463548006],[-114.025402310804,51.005825472199],[-114.024888692601,51.0055783085484],[-114.024361702803,51.0053247105234],[-114.022877022335,51.004610241891]]}},{"type":"Feature","id":"alignment-3","properties":{"kind":"alignment","name":"Green Line · Southeast segment","title":"Green Line · Southeast segment","description":"The southeast project is under construction. This line shows the planned alignment, not the exact location of current work. Green Line passenger service has not begun.","status":"Construction underway · not operating","statusCode":"under-construction","date":"2026-09-10","phase":"Phase 1","stage":"Southeast","sourceUrl":"https://www.calgary.ca/green-line/about.html","operational":false,"sourceObjectId":3,"sourceGeometryClass":"BRIDGE"},"geometry":{"type":"LineString","coordinates":[[-114.036738358021,51.0386551218058],[-114.035934841106,51.0378182241731],[-114.035851930282,51.0377215415568],[-114.035785223057,51.0376285046555],[-114.03572971246,51.0375326037555],[-114.03568570397,51.0374343709721],[-114.035664692189,51.0373741263144],[-114.03564743724,51.0373134912506],[-114.035629281168,51.0372323508486],[-114.035610942035,51.0371206399689],[-114.035587159099,51.036878510203],[-114.035583249067,51.036635929381],[-114.035599220677,51.036393542966],[-114.035635032763,51.0361519955273],[-114.035690589981,51.0359119271459],[-114.035765742817,51.0356739770107],[-114.035791647122,51.0356044837217],[-114.035815641471,51.0355451026804],[-114.035841646311,51.0354859871135],[-114.035870002464,51.0354272241158],[-114.035901030827,51.03536895113],[-114.035974500556,51.0352504778133],[-114.036060342466,51.0351353412219],[-114.036158179051,51.0350240520635],[-114.036218264681,51.0349632061196],[-114.036271918982,51.0349120521911],[-114.036326973843,51.0348616421534],[-114.036382910124,51.0348117703008],[-114.036439224363,51.0347622201363],[-114.037635839449,51.0337116097529],[-114.037710740544,51.0336456592689],[-114.03777417331,51.0335889440189],[-114.037886743702,51.0334837256919],[-114.037954574885,51.0334154292174],[-114.038096745523,51.033251619351],[-114.038216667057,51.0330809133537],[-114.0383134995,51.032904505408],[-114.038386568319,51.0327236282873],[-114.038435362992,51.0325395434662],[-114.038459541273,51.0323535393189],[-114.0384589363,51.032166914935],[-114.03843354945,51.0319809720299],[-114.038383560301,51.0317970122449],[-114.038309318058,51.0316163191712],[-114.038211340116,51.0314401565533],[-114.038090310609,51.0312697539073],[-114.037947077551,51.0311063020294],[-114.037888769487,51.0310478353978],[-114.037828081448,51.0309902271295],[-114.037765560705,51.0309332549971],[-114.037712464425,51.0308861091887],[-114.037626441878,51.0308109448021],[-114.037266826336,51.0304940183083],[-114.036736383519,51.0300356664197]]}},{"type":"Feature","id":"alignment-6","properties":{"kind":"alignment","name":"Green Line · Southeast segment","title":"Green Line · Southeast segment","description":"The southeast project is under construction. This line shows the planned alignment, not the exact location of current work. Green Line passenger service has not begun.","status":"Construction underway · not operating","statusCode":"under-construction","date":"2026-09-10","phase":"Phase 1","stage":"Southeast","sourceUrl":"https://www.calgary.ca/green-line/about.html","operational":false,"sourceObjectId":6,"sourceGeometryClass":"BRIDGE"},"geometry":{"type":"LineString","coordinates":[[-114.035345323043,51.0288250437914],[-114.035343244605,51.0288232347816],[-114.035232053378,51.0287264270784],[-114.035215868165,51.0287123360149],[-114.035199677244,51.0286982251732],[-114.035183502007,51.0286841035369],[-114.035167346724,51.0286699648118],[-114.035151219944,51.0286558018035],[-114.035135131646,51.028641614509],[-114.035119090377,51.028627394835],[-114.035103103262,51.0286131391834],[-114.035087184554,51.0285988430552],[-114.035071338529,51.0285845073481],[-114.035055579438,51.0285701230679],[-114.03503991298,51.0285556884152],[-114.035024351983,51.0285412006892],[-114.035008903573,51.0285266553928],[-114.034974512575,51.0284935815785]]}},{"type":"Feature","id":"alignment-9","properties":{"kind":"alignment","name":"Green Line · Downtown segment","title":"Green Line · Downtown segment","description":"Surface alignment along 10 Avenue to 2 Street SW, agreed by Executive Committee on 8 September 2026. Design, planning and procurement are underway. Green Line passenger service has not begun.","status":"Planning and design · not operating","statusCode":"planned","date":"2026-09-10","phase":"Phase 1","stage":"Downtown","sourceUrl":"https://www.calgary.ca/green-line/downtown-segment.html","operational":false,"sourceObjectId":9,"sourceGeometryClass":"CENTRELINE"},"geometry":{"type":"LineString","coordinates":[[-114.05312378744,51.0432636660931],[-114.054229996237,51.0430705026812],[-114.055694737935,51.043099940778],[-114.058246680079,51.0431838014943],[-114.060703977521,51.04325841401],[-114.063267003079,51.0433300843624],[-114.065290749311,51.043393221053],[-114.065826661752,51.0434063972526],[-114.067425380952,51.0434590924416]]}},{"type":"Feature","id":"alignment-10","properties":{"kind":"alignment","name":"Green Line · Southeast segment","title":"Green Line · Southeast segment","description":"The southeast project is under construction. This line shows the planned alignment, not the exact location of current work. Green Line passenger service has not begun.","status":"Construction underway · not operating","statusCode":"under-construction","date":"2026-09-10","phase":"Phase 1","stage":"Southeast","sourceUrl":"https://www.calgary.ca/green-line/about.html","operational":false,"sourceObjectId":10,"sourceGeometryClass":"BRIDGE"},"geometry":{"type":"LineString","coordinates":[[-114.022874397173,51.0046089784396],[-114.020892373233,51.0036550773275],[-114.020478898955,51.0034560714591],[-114.020460627764,51.0034472772439],[-114.020442358008,51.0034384875205],[-114.020424085409,51.0034296977947],[-114.02040581567,51.0034209179543],[-114.020387537391,51.0034121408095],[-114.020369264823,51.0034033744485],[-114.020350978016,51.0033946134811],[-114.020332688371,51.003385863299],[-114.02031438449,51.0033771248033],[-114.020296073496,51.0033683961947],[-114.020277748268,51.0033596837673],[-114.020259410229,51.003350982127],[-114.020241059381,51.0033422993647],[-114.020222690026,51.0033336336832],[-114.020204305013,51.0033249868801],[-114.020185900067,51.0033163580572],[-114.020167473766,51.0033077508105],[-114.020149027533,51.0032991633419],[-114.020130558522,51.0032906028437],[-114.020112062456,51.0032820639228],[-114.020093542186,51.0032735519725],[-114.020074996289,51.003265066993],[-114.020056420491,51.003256611682],[-114.020037813366,51.0032481833429],[-114.020019179191,51.0032397873686],[-114.020000509417,51.0032314237608],[-114.019981806893,51.0032230925188],[-114.019963071621,51.0032147972386],[-114.019944297902,51.0032065388201],[-114.019925488585,51.0031983154649],[-114.019906619447,51.0031901235811],[-114.019620406006,51.003077619718],[-114.019365303997,51.0029786450401]]}},{"type":"Feature","id":"alignment-12","properties":{"kind":"alignment","name":"Green Line · Southeast segment","title":"Green Line · Southeast segment","description":"The southeast project is under construction. This line shows the planned alignment, not the exact location of current work. Green Line passenger service has not begun.","status":"Construction underway · not operating","statusCode":"under-construction","date":"2026-09-10","phase":"Phase 1","stage":"Southeast","sourceUrl":"https://www.calgary.ca/green-line/about.html","operational":false,"sourceObjectId":12,"sourceGeometryClass":"TUNNEL"},"geometry":{"type":"LineString","coordinates":[[-114.033780683725,51.0238611026017],[-114.033518671395,51.0225370410603],[-114.033439273422,51.0222082126783],[-114.033322510313,51.0217694562972]]}},{"type":"Feature","id":"alignment-13","properties":{"kind":"alignment","name":"Green Line · Southeast segment","title":"Green Line · Southeast segment","description":"The southeast project is under construction. This line shows the planned alignment, not the exact location of current work. Green Line passenger service has not begun.","status":"Construction underway · not operating","statusCode":"under-construction","date":"2026-09-10","phase":"Phase 1","stage":"Southeast","sourceUrl":"https://www.calgary.ca/green-line/about.html","operational":false,"sourceObjectId":13,"sourceGeometryClass":"BRIDGE"},"geometry":{"type":"LineString","coordinates":[[-113.997322336779,50.972316133053],[-113.997406816115,50.9722170452835],[-113.997524733163,50.9720787336686]]}},{"type":"Feature","id":"alignment-14","properties":{"kind":"alignment","name":"Green Line · Southeast segment","title":"Green Line · Southeast segment","description":"The southeast project is under construction. This line shows the planned alignment, not the exact location of current work. Green Line passenger service has not begun.","status":"Construction underway · not operating","statusCode":"under-construction","date":"2026-09-10","phase":"Phase 1","stage":"Southeast","sourceUrl":"https://www.calgary.ca/green-line/about.html","operational":false,"sourceObjectId":14,"sourceGeometryClass":"CENTRELINE"},"geometry":{"type":"LineString","coordinates":[[-114.042826054194,51.0429535463575],[-114.042654301239,51.042912906331],[-114.04240917472,51.0428549047485],[-114.042043433913,51.0427520423629],[-114.041698389421,51.0426276059683],[-114.041364679297,51.04248411349],[-114.041059744372,51.04233685224],[-114.040769668143,51.0421775648302],[-114.040488877246,51.0420152520291],[-114.040259075649,51.0418893609021],[-114.039867378447,51.0416647660818],[-114.039585133866,51.0414876850463],[-114.039334936172,51.04129280095],[-114.03893481023,51.0408919035348],[-114.038634179341,51.0405794408132],[-114.038376393647,51.040326435772],[-114.036738358021,51.0386551218058]]}},{"type":"Feature","id":"alignment-15","properties":{"kind":"alignment","name":"Green Line · Southeast segment","title":"Green Line · Southeast segment","description":"The southeast project is under construction. This line shows the planned alignment, not the exact location of current work. Green Line passenger service has not begun.","status":"Construction underway · not operating","statusCode":"under-construction","date":"2026-09-10","phase":"Phase 1","stage":"Southeast","sourceUrl":"https://www.calgary.ca/green-line/about.html","operational":false,"sourceObjectId":15,"sourceGeometryClass":"CENTRELINE"},"geometry":{"type":"LineString","coordinates":[[-114.019365303997,51.0029786450401],[-114.018841987595,51.0028109342105],[-114.018278906355,51.0026676534421],[-114.017698210388,51.0025556238644],[-114.017104268721,51.0024756869212],[-114.016501552747,51.0024284449959],[-114.015894599218,51.0024142551306]]}},{"type":"Feature","id":"alignment-17","properties":{"kind":"alignment","name":"Green Line · Southeast segment","title":"Green Line · Southeast segment","description":"The southeast project is under construction. This line shows the planned alignment, not the exact location of current work. Green Line passenger service has not begun.","status":"Construction underway · not operating","statusCode":"under-construction","date":"2026-09-10","phase":"Phase 1","stage":"Southeast","sourceUrl":"https://www.calgary.ca/green-line/about.html","operational":false,"sourceObjectId":17,"sourceGeometryClass":"BRIDGE"},"geometry":{"type":"LineString","coordinates":[[-114.015894599218,51.0024142551306],[-114.015436586129,51.0024241639605],[-114.014427204643,51.0024630605556],[-114.014022109725,51.0024691483173],[-114.013729408158,51.0024535273397],[-114.013530549119,51.0024334628292],[-114.013221613788,51.0023814139937],[-114.012964522639,51.0023215078087],[-114.01276876303,51.0022639362144],[-114.012640692591,51.0022162062131],[-114.01252562446,51.002172686399],[-114.012340684826,51.0020906489839],[-114.012152040705,51.0019892575202],[-114.012024333677,51.0019089774347],[-114.011709623731,51.0016774555175],[-114.01067813562,51.0006089564467]]}},{"type":"Feature","id":"alignment-20","properties":{"kind":"alignment","name":"Green Line · Southeast segment","title":"Green Line · Southeast segment","description":"The southeast project is under construction. This line shows the planned alignment, not the exact location of current work. Green Line passenger service has not begun.","status":"Construction underway · not operating","statusCode":"under-construction","date":"2026-09-10","phase":"Phase 1","stage":"Southeast","sourceUrl":"https://www.calgary.ca/green-line/about.html","operational":false,"sourceObjectId":20,"sourceGeometryClass":"CENTRELINE"},"geometry":{"type":"LineString","coordinates":[[-113.994639976357,50.9507618954298],[-113.994206216896,50.9506214114479],[-113.993833594936,50.9505278472771],[-113.993551781522,50.9504759793299],[-113.993264934168,50.9504493108425],[-113.99300208015,50.9504341123791],[-113.992598167551,50.9504327542771],[-113.991766707,50.9504342979166],[-113.986321408699,50.950445044203]]}},{"type":"Feature","id":"alignment-23","properties":{"kind":"alignment","name":"Green Line · Southeast segment","title":"Green Line · Southeast segment","description":"The southeast project is under construction. This line shows the planned alignment, not the exact location of current work. Green Line passenger service has not begun.","status":"Construction underway · not operating","statusCode":"under-construction","date":"2026-09-10","phase":"Phase 1","stage":"Southeast","sourceUrl":"https://www.calgary.ca/green-line/about.html","operational":false,"sourceObjectId":23,"sourceGeometryClass":"CENTRELINE"},"geometry":{"type":"LineString","coordinates":[[-113.980827506308,50.9480691304455],[-113.980778988277,50.9478245661739],[-113.980728516641,50.9475805175688],[-113.980690186605,50.9474204796115],[-113.980558251913,50.9470160450644],[-113.980424134589,50.9467212784864],[-113.980374065581,50.9466131262552],[-113.980041182806,50.9460635648546],[-113.979071219688,50.9447720714426],[-113.978176747413,50.9435501727594],[-113.977090447812,50.942089838221],[-113.976338067959,50.941051059741],[-113.976014996077,50.9405601339007],[-113.97586768076,50.9402980247323],[-113.975700741399,50.9400008515897],[-113.975490689779,50.9395561107902],[-113.975312313983,50.939136251325],[-113.974992520911,50.9383335454238],[-113.974913636998,50.9381629802393],[-113.974782875829,50.9379290286134],[-113.974608086742,50.9376866500238],[-113.974400211196,50.9374548737938],[-113.97416085344,50.9372354899922],[-113.973891860951,50.937030191638],[-113.973595310209,50.9368405648159],[-113.973273491049,50.9366680724986],[-113.972891763974,50.9364999929244],[-113.972564159792,50.9363796791826],[-113.972182123473,50.9362660040929],[-113.971785727636,50.9361739000472],[-113.971378033112,50.9361040787518],[-113.970962187546,50.9360570793671],[-113.970541401239,50.9360332640105],[-113.970088640702,50.936029582626],[-113.964257549162,50.936041798739]]}},{"type":"Feature","id":"alignment-25","properties":{"kind":"alignment","name":"Green Line · Southeast segment","title":"Green Line · Southeast segment","description":"The southeast project is under construction. This line shows the planned alignment, not the exact location of current work. Green Line passenger service has not begun.","status":"Construction underway · not operating","statusCode":"under-construction","date":"2026-09-10","phase":"Phase 1","stage":"Southeast","sourceUrl":"https://www.calgary.ca/green-line/about.html","operational":false,"sourceObjectId":25,"sourceGeometryClass":"CENTRELINE"},"geometry":{"type":"LineString","coordinates":[[-114.033322510313,51.0217694562972],[-114.033057875918,51.0211607918801],[-114.032381849907,51.0198160313393],[-114.032134129036,51.0193297691887],[-114.03145400175,51.0182103255112]]}},{"type":"Feature","id":"alignment-26","properties":{"kind":"alignment","name":"Green Line · Southeast segment","title":"Green Line · Southeast segment","description":"The southeast project is under construction. This line shows the planned alignment, not the exact location of current work. Green Line passenger service has not begun.","status":"Construction underway · not operating","statusCode":"under-construction","date":"2026-09-10","phase":"Phase 1","stage":"Southeast","sourceUrl":"https://www.calgary.ca/green-line/about.html","operational":false,"sourceObjectId":26,"sourceGeometryClass":"CENTRELINE"},"geometry":{"type":"LineString","coordinates":[[-114.008694537609,50.9985491909985],[-114.008320986489,50.9981656312891],[-114.007823082521,50.9976502144731],[-114.007216979194,50.9970221958949],[-114.005066803031,50.9947940093936],[-114.003767639493,50.9934492635382],[-114.003604790557,50.9932869126496],[-114.003383584222,50.9930796815895],[-114.003132473978,50.9928650774632],[-114.002830940907,50.9926193422947],[-114.002490769289,50.9923382223577],[-114.002238401704,50.9921122001431],[-114.002063444615,50.9919404439532],[-114.001564982943,50.9914269983633],[-114.001138085074,50.990982911758],[-114.000736208289,50.9905670667136],[-114.000135886437,50.9899459327608],[-113.999234156093,50.9890121092619],[-113.997630274889,50.9873504091822],[-113.997229332481,50.9869345077833],[-113.996313080081,50.9859845277693],[-113.996069511556,50.9857288914627],[-113.995869120269,50.9854897992486],[-113.99557490172,50.9851352495282],[-113.99550155321,50.9850210201996],[-113.995237281401,50.9846289831728],[-113.995184119351,50.9845480338963],[-113.995069006967,50.9843325447393],[-113.994893788467,50.983987598433],[-113.994872737417,50.9839482283584],[-113.99464460628,50.9833415332738]]}},{"type":"Feature","id":"alignment-27","properties":{"kind":"alignment","name":"Green Line · Southeast segment","title":"Green Line · Southeast segment","description":"The southeast project is under construction. This line shows the planned alignment, not the exact location of current work. Green Line passenger service has not begun.","status":"Construction underway · not operating","statusCode":"under-construction","date":"2026-09-10","phase":"Phase 1","stage":"Southeast","sourceUrl":"https://www.calgary.ca/green-line/about.html","operational":false,"sourceObjectId":27,"sourceGeometryClass":"CENTRELINE"},"geometry":{"type":"LineString","coordinates":[[-114.036736383519,51.0300356664197],[-114.036548072451,51.0298717837593],[-114.036121588837,51.0295006222963],[-114.03573929765,51.0291679174178],[-114.035345323043,51.0288250437914]]}},{"type":"Feature","id":"alignment-32","properties":{"kind":"alignment","name":"Green Line · Southeast segment","title":"Green Line · Southeast segment","description":"The southeast project is under construction. This line shows the planned alignment, not the exact location of current work. Green Line passenger service has not begun.","status":"Construction underway · not operating","statusCode":"under-construction","date":"2026-09-10","phase":"Phase 1","stage":"Southeast","sourceUrl":"https://www.calgary.ca/green-line/about.html","operational":false,"sourceObjectId":32,"sourceGeometryClass":"CENTRELINE"},"geometry":{"type":"LineString","coordinates":[[-113.994590752159,50.9831221196361],[-113.994537344431,50.9829016766507],[-113.994489767955,50.9827033389999],[-113.994452590422,50.9824626363445],[-113.994414624008,50.9821887233981],[-113.994289635558,50.9812577394299],[-113.99417416051,50.9804082898452],[-113.994048084544,50.9794595108],[-113.993942356068,50.9786198853121],[-113.993937809015,50.9783035767904],[-113.993961959195,50.978006363253],[-113.994003977645,50.9777745858419],[-113.994063579228,50.9775096763558],[-113.994156898106,50.9771830568761],[-113.994243598813,50.9768878627564],[-113.994380258125,50.9764194520527],[-113.994525729198,50.9759369958387],[-113.994841278987,50.9752816427308],[-113.995069849887,50.9749638284483],[-113.995208214339,50.9747954832388],[-113.995758245211,50.9741486700696],[-113.996134478922,50.9737093620767],[-113.996332455896,50.9734771598993],[-113.996530432319,50.9732449573772],[-113.996926383514,50.9727805477026],[-113.997322336779,50.972316133053]]}},{"type":"Feature","id":"alignment-35","properties":{"kind":"alignment","name":"Green Line · Southeast segment","title":"Green Line · Southeast segment","description":"The southeast project is under construction. This line shows the planned alignment, not the exact location of current work. Green Line passenger service has not begun.","status":"Construction underway · not operating","statusCode":"under-construction","date":"2026-09-10","phase":"Phase 1","stage":"Southeast","sourceUrl":"https://www.calgary.ca/green-line/about.html","operational":false,"sourceObjectId":35,"sourceGeometryClass":"CENTRELINE"},"geometry":{"type":"LineString","coordinates":[[-114.001336907322,50.9613858203691],[-114.001339527956,50.9603932162597],[-114.001338612605,50.9590030828434],[-114.001278023848,50.9588415185409],[-114.001207399025,50.9587387489342],[-114.001056348899,50.9586081465103],[-114.000848789955,50.9584857880201],[-113.999049600881,50.9578706447432],[-113.998742171575,50.957659647829],[-113.998630734355,50.9574989931295],[-113.998587996907,50.957315541762],[-113.998586446404,50.9544232646561],[-113.998585681447,50.9541634258352],[-113.998558744935,50.9539581740973],[-113.998513137314,50.9537780577984],[-113.998399464681,50.9535217963237],[-113.998345052294,50.9534238679589],[-113.998226721249,50.9532542263795],[-113.998135925786,50.9531455895138],[-113.997927544533,50.9529352921347],[-113.997768062569,50.9528058943161],[-113.995626389124,50.9513211501448],[-113.995296441006,50.9510954410296],[-113.99515299779,50.9510070008285],[-113.995021201254,50.9509302792541],[-113.994639976357,50.9507618954298]]}},{"type":"Feature","id":"alignment-37","properties":{"kind":"alignment","name":"Green Line · Southeast segment","title":"Green Line · Southeast segment","description":"The southeast project is under construction. This line shows the planned alignment, not the exact location of current work. Green Line passenger service has not begun.","status":"Construction underway · not operating","statusCode":"under-construction","date":"2026-09-10","phase":"Phase 1","stage":"Southeast","sourceUrl":"https://www.calgary.ca/green-line/about.html","operational":false,"sourceObjectId":37,"sourceGeometryClass":"BRIDGE"},"geometry":{"type":"LineString","coordinates":[[-113.986321408699,50.950445044203],[-113.984733142197,50.9504481754327],[-113.984695265773,50.9504482477882],[-113.984657365158,50.9504483111384],[-113.98461946028,50.950448356496],[-113.984581541179,50.9504483730717],[-113.984543613551,50.9504483536745],[-113.98450567313,50.9504482875159],[-113.984467718495,50.9504481674038],[-113.984429753921,50.950447979854],[-113.984391776562,50.9504477212701],[-113.984353790694,50.9504473763698],[-113.984315794894,50.950446940658],[-113.984277790591,50.9504464033472],[-113.984239776364,50.9504457536491],[-113.984191574401,50.9504470075155],[-113.984153547451,50.950446107869],[-113.984115520551,50.950445067968],[-113.984075485497,50.9504441860027],[-113.984037455858,50.9504428395209],[-113.983999433395,50.9504413258161],[-113.983828387394,50.9504337669396],[-113.983648779573,50.9504182469747],[-113.98346223559,50.9503979584184],[-113.983195303413,50.9503550817397],[-113.982929061371,50.9502944036903],[-113.982683174652,50.9502248181833],[-113.982438414422,50.950136268175],[-113.982213915383,50.9500399885438],[-113.982001663022,50.9499303810718],[-113.981770331263,50.9497847351977],[-113.981636122183,50.9496867730169],[-113.981360037527,50.9494310462747],[-113.981216907871,50.949257341532],[-113.981119054697,50.9491016272966],[-113.981077514494,50.949007794076],[-113.981066543007,50.9489846613317],[-113.981055985691,50.9489614585324],[-113.98104582831,50.9489381928678],[-113.981036059476,50.9489148697301],[-113.981026662112,50.9488914909145],[-113.981017627673,50.9488680663086],[-113.981008937659,50.9488445959096],[-113.981000579258,50.9488210842103],[-113.980992541084,50.9487975375019],[-113.980984810326,50.9487739575804],[-113.980977365636,50.9487503471392],[-113.980970199897,50.9487267115713],[-113.980963294605,50.9487030526715],[-113.980956638376,50.9486793722362],[-113.980950214129,50.9486556747574],[-113.980944010479,50.9486319602335],[-113.98093801177,50.9486082340556],[-113.980932203769,50.9485844962217],[-113.980926569398,50.9485607494259],[-113.980921098695,50.9485369945655],[-113.980915771735,50.9485132343344],[-113.980910578554,50.9484894696298],[-113.980905504921,50.9484657040454],[-113.980900532335,50.9484419357803],[-113.98089564941,50.9484181693275],[-113.980890839068,50.9483944037854],[-113.980886089924,50.9483706400508],[-113.9808813849,50.9483468817172],[-113.980876711184,50.9483231332773],[-113.980872051705,50.9482993830414],[-113.980827506308,50.9480691304455]]}},{"type":"Feature","id":"alignment-40","properties":{"kind":"alignment","name":"Green Line · Southeast segment","title":"Green Line · Southeast segment","description":"The southeast project is under construction. This line shows the planned alignment, not the exact location of current work. Green Line passenger service has not begun.","status":"Construction underway · not operating","statusCode":"under-construction","date":"2026-09-10","phase":"Phase 1","stage":"Southeast","sourceUrl":"https://www.calgary.ca/green-line/about.html","operational":false,"sourceObjectId":40,"sourceGeometryClass":"CENTRELINE"},"geometry":{"type":"LineString","coordinates":[[-114.034974512575,51.0284935815785],[-114.034722749628,51.0281925015105],[-114.034678735289,51.0281156530334],[-114.034670189447,51.0280989193332],[-114.034661941465,51.0280820704752],[-114.03465400707,51.0280651684839],[-114.034646381991,51.0280482196536],[-114.034639051975,51.0280312284834],[-114.034632005618,51.0280141958757],[-114.034625235795,51.0279971263277],[-114.034618731106,51.0279800261355],[-114.034612480146,51.0279628953025],[-114.03460647294,51.0279457374277],[-114.034600700937,51.0279285570085],[-114.034595149882,51.0279113549481],[-114.034589808373,51.0278941357449],[-114.034584669282,51.0278768976029],[-114.034579719784,51.0278596486169],[-114.034574947047,51.0278423860937],[-114.03457034252,51.0278251136317],[-114.0345658948,51.0278078330324],[-114.034561592484,51.027790545198],[-114.034557427019,51.0277732510301],[-114.034553382728,51.0277559577251],[-114.034549449629,51.0277386598923],[-114.03454561917,51.0277213593319],[-114.034541879949,51.0277040596434],[-114.034538219137,51.0276867626285],[-114.034534623904,51.027669467392],[-114.034531087124,51.027652175734],[-114.034527595966,51.0276348867592],[-114.034524140453,51.0276176040666],[-114.034520709184,51.0276003312554],[-114.034517287898,51.0275830593401],[-114.034148986041,51.0257221187058],[-114.033780683725,51.0238611026017]]}},{"type":"Feature","id":"alignment-41","properties":{"kind":"alignment","name":"Green Line · Southeast segment","title":"Green Line · Southeast segment","description":"The southeast project is under construction. This line shows the planned alignment, not the exact location of current work. Green Line passenger service has not begun.","status":"Construction underway · not operating","statusCode":"under-construction","date":"2026-09-10","phase":"Phase 1","stage":"Southeast","sourceUrl":"https://www.calgary.ca/green-line/about.html","operational":false,"sourceObjectId":41,"sourceGeometryClass":"BRIDGE"},"geometry":{"type":"LineString","coordinates":[[-114.043708027964,51.0431010758668],[-114.043551118888,51.0430821723866],[-114.043395398749,51.0430596984298],[-114.043202248289,51.0430274446874],[-114.043016876209,51.0429928198664],[-114.042826054194,51.0429535463575]]}},{"type":"Feature","id":"alignment-42","properties":{"kind":"alignment","name":"Green Line · Southeast segment","title":"Green Line · Southeast segment","description":"The southeast project is under construction. This line shows the planned alignment, not the exact location of current work. Green Line passenger service has not begun.","status":"Construction underway · not operating","statusCode":"under-construction","date":"2026-09-10","phase":"Phase 1","stage":"Southeast","sourceUrl":"https://www.calgary.ca/green-line/about.html","operational":false,"sourceObjectId":42,"sourceGeometryClass":"CENTRELINE"},"geometry":{"type":"LineString","coordinates":[[-113.997524733163,50.9720787336686],[-114.000130748853,50.9690416105752],[-114.000553487603,50.9685022263606],[-114.000915787749,50.967920720899],[-114.001205862593,50.9671939066264],[-114.001323208079,50.9665736126153],[-114.001336907322,50.9613858203691]]}},{"type":"Feature","id":"alignment-46","properties":{"kind":"alignment","name":"Green Line · Southeast segment","title":"Green Line · Southeast segment","description":"The southeast project is under construction. This line shows the planned alignment, not the exact location of current work. Green Line passenger service has not begun.","status":"Construction underway · not operating","statusCode":"under-construction","date":"2026-09-10","phase":"Phase 1","stage":"Southeast","sourceUrl":"https://www.calgary.ca/green-line/about.html","operational":false,"sourceObjectId":46,"sourceGeometryClass":"BRIDGE"},"geometry":{"type":"LineString","coordinates":[[-114.028177824007,51.0071610355446],[-114.026900361115,51.0065463548006]]}},{"type":"Feature","id":"alignment-48","properties":{"kind":"alignment","name":"Green Line · Downtown segment","title":"Green Line · Downtown segment","description":"Surface alignment along 10 Avenue to 2 Street SW, agreed by Executive Committee on 8 September 2026. Design, planning and procurement are underway. Green Line passenger service has not begun.","status":"Planning and design · not operating","statusCode":"planned","date":"2026-09-10","phase":"Phase 1","stage":"Downtown","sourceUrl":"https://www.calgary.ca/green-line/downtown-segment.html","operational":false,"sourceObjectId":48,"sourceGeometryClass":"CENTRELINE"},"geometry":{"type":"LineString","coordinates":[[-114.0531237872,51.0432636663598],[-114.052436031138,51.0434375480681],[-114.050041055569,51.0434656885569]]}},{"type":"Feature","id":"alignment-49","properties":{"kind":"alignment","name":"Green Line · Southeast segment","title":"Green Line · Southeast segment","description":"The southeast project is under construction. This line shows the planned alignment, not the exact location of current work. Green Line passenger service has not begun.","status":"Construction underway · not operating","statusCode":"under-construction","date":"2026-09-10","phase":"Phase 1","stage":"Southeast","sourceUrl":"https://www.calgary.ca/green-line/about.html","operational":false,"sourceObjectId":49,"sourceGeometryClass":"CENTRELINE"},"geometry":{"type":"LineString","coordinates":[[-114.03145400175,51.0182103255112],[-114.03076733042,51.0171541817969],[-114.028905950506,51.0134934273531],[-114.028695235484,51.0130145953659],[-114.028603898653,51.0127065127176],[-114.028575023208,51.0124065900338],[-114.028596346384,51.0119150324032],[-114.028681798902,51.0116038435407],[-114.028792105009,51.011332849001],[-114.028945235457,51.0110468290038],[-114.029397542876,51.0103392747252],[-114.029722529157,51.0098226321319],[-114.029811684827,51.0096508640146],[-114.029881135037,51.0094611078032],[-114.029922930521,51.0092740852322],[-114.029937014277,51.0090826197975],[-114.02990920263,51.0087915456331],[-114.02981910132,51.0085098592158],[-114.029728995553,51.008333184255],[-114.029646499108,51.0082115328975],[-114.029570609612,51.0081085992483],[-114.029464231607,51.0079817424168],[-114.029308345438,51.007833082388],[-114.02912487336,51.0076838977299],[-114.028899391093,51.0075317898085],[-114.028177824007,51.0071610355446]]}},{"type":"Feature","id":"alignment-54","properties":{"kind":"alignment","name":"Green Line · Southeast segment","title":"Green Line · Southeast segment","description":"The southeast project is under construction. This line shows the planned alignment, not the exact location of current work. Green Line passenger service has not begun.","status":"Construction underway · not operating","statusCode":"under-construction","date":"2026-09-10","phase":"Phase 1","stage":"Southeast","sourceUrl":"https://www.calgary.ca/green-line/about.html","operational":false,"sourceObjectId":54,"sourceGeometryClass":"BRIDGE"},"geometry":{"type":"LineString","coordinates":[[-113.99464460628,50.9833415332738],[-113.994590752159,50.9831221196361]]}},{"type":"Feature","id":"alignment-55","properties":{"kind":"alignment","name":"Green Line · Southeast segment","title":"Green Line · Southeast segment","description":"The southeast project is under construction. This line shows the planned alignment, not the exact location of current work. Green Line passenger service has not begun.","status":"Construction underway · not operating","statusCode":"under-construction","date":"2026-09-10","phase":"Phase 1","stage":"Southeast","sourceUrl":"https://www.calgary.ca/green-line/about.html","operational":false,"sourceObjectId":55,"sourceGeometryClass":"CENTRELINE"},"geometry":{"type":"LineString","coordinates":[[-114.050041055569,51.0434656885569],[-114.04842231167,51.0434097206706],[-114.046295961423,51.0432782236644],[-114.045278024164,51.0432374575298],[-114.044920778838,51.0432158024565],[-114.044009675908,51.0431257968227],[-114.043708027964,51.0431010758668]]}},{"type":"Feature","id":"alignment-57","properties":{"kind":"alignment","name":"Green Line · Southeast segment","title":"Green Line · Southeast segment","description":"The southeast project is under construction. This line shows the planned alignment, not the exact location of current work. Green Line passenger service has not begun.","status":"Construction underway · not operating","statusCode":"under-construction","date":"2026-09-10","phase":"Phase 1","stage":"Southeast","sourceUrl":"https://www.calgary.ca/green-line/about.html","operational":false,"sourceObjectId":57,"sourceGeometryClass":"CENTRELINE"},"geometry":{"type":"LineString","coordinates":[[-114.01067813562,51.0006089564467],[-114.009951779901,50.9998553209141],[-114.009327243029,50.9992095170742],[-114.008958794855,50.998820524703],[-114.008694537609,50.9985491909985]]}},{"type":"Feature","id":"station-douglas-glen","properties":{"kind":"station","name":"Douglas Glen","title":"Douglas Glen · Green Line","description":"Planned Phase 1 station. Green Line passenger service has not begun. Location is approximate and is not a station entrance or a walking route.","status":"Planned station · not operating","statusCode":"planned","date":"2026-09-10","phase":"Phase 1","stage":"Southeast","sourceStage":"SE Segment","sourceUrl":"https://www.calgary.ca/green-line/stations/douglas-glen.html","operational":false,"stationType":"Ground Level","location":"114 Avenue S.E. between 27 Street and 29 Street S.E. "},"geometry":{"type":"Point","coordinates":[-113.996985963583,50.9522581981961]}},{"type":"Feature","id":"station-highfield","properties":{"kind":"station","name":"Highfield","title":"Highfield · Green Line","description":"Planned Phase 1 station. Green Line passenger service has not begun. Location is approximate and is not a station entrance or a walking route.","status":"Planned station · not operating","statusCode":"planned","date":"2026-09-10","phase":"Phase 1","stage":"Southeast","sourceStage":"SE Segment","sourceUrl":"https://www.calgary.ca/green-line/stations/highfield.html","operational":false,"stationType":"Ground Level","location":"Parallel to Ogden Road, near Highfield Boulevard "},"geometry":{"type":"Point","coordinates":[-114.032519173454,51.0202036429717]}},{"type":"Feature","id":"station-ogden","properties":{"kind":"station","name":"Ogden","title":"Ogden · Green Line","description":"Planned Phase 1 station. Green Line passenger service has not begun. Location is approximate and is not a station entrance or a walking route.","status":"Planned station · not operating","statusCode":"planned","date":"2026-09-10","phase":"Phase 1","stage":"Southeast","sourceStage":"SE Segment","sourceUrl":"https://www.calgary.ca/green-line/stations/ogden.html","operational":false,"stationType":"Ground Level","location":"Parallel to Ogden Road S.E., at 72 Avenue S.E. junction "},"geometry":{"type":"Point","coordinates":[-113.999344611682,50.989132311017]}},{"type":"Feature","id":"station-south-hill","properties":{"kind":"station","name":"South Hill","title":"South Hill · Green Line","description":"Planned Phase 1 station. Green Line passenger service has not begun. Location is approximate and is not a station entrance or a walking route.","status":"Planned station · not operating","statusCode":"planned","date":"2026-09-10","phase":"Phase 1","stage":"Southeast","sourceStage":"SE Segment","sourceUrl":"https://www.calgary.ca/green-line/stations/south-hill.html","operational":false,"stationType":"Ground Level","location":"Near 86 Avenue S.E. and Shepard Road S.E. "},"geometry":{"type":"Point","coordinates":[-113.994259204611,50.9767232928391]}},{"type":"Feature","id":"station-quarry-park","properties":{"kind":"station","name":"Quarry Park","title":"Quarry Park · Green Line","description":"Planned Phase 1 station. Green Line passenger service has not begun. Location is approximate and is not a station entrance or a walking route.","status":"Planned station · not operating","statusCode":"planned","date":"2026-09-10","phase":"Phase 1","stage":"Southeast","sourceStage":"SE Segment","sourceUrl":"https://www.calgary.ca/green-line/stations/quarry-park.html","operational":false,"stationType":"Ground Level","location":"24 Street S.E., near Quarry Park Blvd."},"geometry":{"type":"Point","coordinates":[-114.001327903173,50.9627694869215]}},{"type":"Feature","id":"station-shepard","properties":{"kind":"station","name":"Shepard","title":"Shepard · Green Line","description":"Planned Phase 1 station. Green Line passenger service has not begun. Location is approximate and is not a station entrance or a walking route.","status":"Planned station · not operating","statusCode":"planned","date":"2026-09-10","phase":"Phase 1","stage":"Southeast","sourceStage":"SE Segment","sourceUrl":"https://www.calgary.ca/green-line/stations/shepard.html","operational":false,"stationType":"Ground Level","location":"Near 126 Avenue S.E. and 48 Street S.E."},"geometry":{"type":"Point","coordinates":[-113.966322342499,50.9360349409412]}},{"type":"Feature","id":"station-26-avenue-se","properties":{"kind":"station","name":"26 Avenue SE","title":"26 Avenue SE · Green Line","description":"Planned Phase 1 station. Green Line passenger service has not begun. Location is approximate and is not a station entrance or a walking route.","status":"Planned station · not operating","statusCode":"planned","date":"2026-09-10","phase":"Phase 1","stage":"Southeast","sourceStage":"SE Segment","sourceUrl":"https://www.calgary.ca/green-line/stations/26-avenue-se.html","operational":false,"stationType":"Elevated above ground","location":"West of Crossroads Market\r\n"},"geometry":{"type":"Point","coordinates":[-114.036256978266,51.0296238650075]}},{"type":"Feature","id":"station-lynnwood-millican","properties":{"kind":"station","name":"Lynnwood / Millican","title":"Lynnwood / Millican · Green Line","description":"Planned Phase 1 station. Green Line passenger service has not begun. Location is approximate and is not a station entrance or a walking route.","status":"Planned station · not operating","statusCode":"planned","date":"2026-09-10","phase":"Phase 1","stage":"Southeast","sourceStage":"SE Segment","sourceUrl":"https://www.calgary.ca/green-line/stations/lynnwood-millican.html","operational":false,"stationType":"Ground Level","location":"Parallel to Ogden Road S.E., at Millican Road junction "},"geometry":{"type":"Point","coordinates":[-114.009306007703,50.9991848228764]}},{"type":"Feature","id":"station-ramsay-inglewood","properties":{"kind":"station","name":"Ramsay / Inglewood","title":"Ramsay / Inglewood · Green Line","description":"Planned Phase 1 station. Green Line passenger service has not begun. Location is approximate and is not a station entrance or a walking route.","status":"Planned station · not operating","statusCode":"planned","date":"2026-09-10","phase":"Phase 1","stage":"Southeast","sourceStage":"SE Segment","sourceUrl":"https://www.calgary.ca/green-line/stations/ramsay-inglewood.html","operational":false,"stationType":"Elevated above ground","location":"Above 11 Street S.E., adjacent to CP Rail bridge"},"geometry":{"type":"Point","coordinates":[-114.037181171273,51.0391043934175]}},{"type":"Feature","id":"station-2-street-sw","properties":{"kind":"station","name":"2 Street SW","title":"2 Street SW · Green Line","description":"Planned Phase 1 station. Green Line passenger service has not begun. Location is approximate and is not a station entrance or a walking route.","status":"Planned station · not operating","statusCode":"planned","date":"2026-09-10","phase":"Phase 1","stage":"Downtown","sourceStage":"Downtown Segment","sourceUrl":"https://www.calgary.ca/green-line/downtown-segment.html","operational":false,"stationType":"Ground Level","location":"10 Avenue and 2 Street S.W."},"geometry":{"type":"Point","coordinates":[-114.066855981539,51.0435531671188]}},{"type":"Feature","id":"station-event-centre-grand-central-station","properties":{"kind":"station","name":"Event Centre / Grand Central Station","title":"Event Centre / Grand Central Station · Green Line","description":"Planned Phase 1 station. Green Line passenger service has not begun. Location is approximate and is not a station entrance or a walking route.","status":"Planned station · not operating","statusCode":"planned","date":"2026-09-10","phase":"Phase 1","stage":"Downtown","sourceStage":"Downtown Segment","sourceUrl":"https://www.calgary.ca/green-line/stations/4-street-se.html","operational":false,"stationType":"To be determined","location":"Near 5 Street S.E. and 10 Avenue S.E."},"geometry":{"type":"Point","coordinates":[-114.05004105557,51.0434656894559]}}]}
