{"type":"FeatureCollection","metadata":{"attribution":"© OpenStreetMap contributors","licence":"Open Database Licence 1.0","licenceUrl":"https://opendatacommons.org/licenses/odbl/1-0/","sourceUrl":"https://www.openstreetmap.org/copyright","retrievedAt":"2026-09-16","purpose":"Minimal OpenStreetMap-derived placement, alignment and building-part inputs for nine original approximate Calgary landmark illustrations; not surveyed dimensions."},"features":[{"type":"Feature","id":1313657677,"properties":{"name":"Peace Bridge","sourceUrl":"https://www.openstreetmap.org/way/1313657677"},"geometry":{"type":"Polygon","coordinates":[[[-114.0795267,51.0542936],[-114.0783709,51.0534898],[-114.0783574,51.0534974],[-114.0783324,51.0535117],[-114.0783084,51.0535253],[-114.0782939,51.0535336],[-114.07945,51.0543372],[-114.0794632,51.0543297],[-114.0794883,51.0543154],[-114.0795101,51.054303],[-114.0795267,51.0542936]]]}},{"type":"Feature","id":25719793,"properties":{"name":"Calgary Tower","sourceUrl":"https://www.openstreetmap.org/way/25719793","mapFeatureId":257197932},"geometry":{"type":"Polygon","coordinates":[[[-114.06304121017456,51.044466530796484],[-114.06297147274017,51.04444292188222],[-114.06294465065002,51.04442605836468],[-114.06289100646973,51.044372095067246],[-114.06286954879761,51.044311386282516],[-114.0628856420517,51.044260795567794],[-114.06285881996155,51.04425742285153],[-114.06288027763367,51.04422706839395],[-114.06292855739594,51.04418322303124],[-114.0630304813385,51.04414275035194],[-114.06314313411713,51.044129259450955],[-114.06326651573181,51.04414949580092],[-114.06327188014984,51.04414275035194],[-114.06333088874817,51.044166359419165],[-114.06337380409241,51.04419334119555],[-114.06340599060059,51.04422706839395],[-114.06336843967438,51.044240559266456],[-114.06338453292847,51.044260795567794],[-114.06340062618256,51.044311386282516],[-114.06337916851044,51.04437546777518],[-114.06333088874817,51.044422685660436],[-114.06329333782196,51.044446294585015],[-114.06324505805969,51.0444631580952],[-114.06316459178925,51.04447664889892],[-114.06312167644501,51.04447664889892],[-114.06304121017456,51.044466530796484]]]}},{"type":"Feature","id":127741499,"properties":{"name":"The Bow","sourceUrl":"https://www.openstreetmap.org/way/127741499","mapFeatureId":1277414992},"geometry":{"type":"Polygon","coordinates":[[[-114.062579870224,51.04785934392558],[-114.06260132789612,51.0478728337402],[-114.06262278556824,51.047909930710205],[-114.06262278556824,51.04793691030605],[-114.06260132789612,51.047967262332634],[-114.06262278556824,51.047977379670414],[-114.0625262260437,51.048044828532426],[-114.06242430210114,51.048092042677354],[-114.06224727630615,51.04815611894],[-114.06206488609314,51.04818984325311],[-114.06181812286377,51.04819996054229],[-114.06181812286377,51.048179725961774],[-114.0617698431015,51.04816623623648],[-114.06176447868347,51.048176353530806],[-114.06160354614258,51.04812576703716],[-114.06161427497864,51.04811564973181],[-114.06156599521637,51.04810215998788],[-114.06154990196228,51.048112277296184],[-114.0614640712738,51.048038083650624],[-114.06138360500336,51.04794028275444],[-114.06133532524109,51.04785934392558],[-114.061319231987,51.04778852233429],[-114.061319231987,51.047717700634706],[-114.06133532524109,51.047640133887114],[-114.06136751174927,51.04756931196064],[-114.06139433383942,51.047572684435806],[-114.06142115592957,51.047545704627765],[-114.06147480010986,51.04752209728284],[-114.0615177154541,51.04751872480401],[-114.06156063079834,51.04752209728284],[-114.06161963939667,51.04755582205763],[-114.06164109706879,51.04757942938534],[-114.061678647995,51.04756931196064],[-114.06172156333923,51.047650251296346],[-114.06178593635559,51.0477109557053],[-114.06186640262604,51.047764915113135],[-114.06196296215057,51.04780201216957],[-114.0620756149292,51.04783236428452],[-114.06219363212585,51.04784248165174],[-114.06231164932251,51.047839109196275],[-114.0624350309372,51.04781550200087],[-114.06244575977325,51.04784248165174],[-114.06249940395355,51.047835736740495],[-114.06256377696991,51.04784922656199],[-114.062579870224,51.04785934392558]]]}},{"type":"Feature","id":"saddledome-outline","properties":{"name":"Saddledome","sourceUrl":"https://tiles.openfreemap.org/planet/20260913_164504_pt/14/3001/5482.pbf","sourceMapFeatureId":30149630,"sourcePart":29,"note":"One outline extracted from a shared basemap feature; the other building parts are excluded. The model uses the City location point."},"geometry":{"type":"Polygon","coordinates":[[[-114.0529614686966,51.03736645077262],[-114.05295073986053,51.03749800609137],[-114.0529078245163,51.03761269503883],[-114.05281662940979,51.037727383702446],[-114.05269861221313,51.037825206161784],[-114.05255377292633,51.037906162523655],[-114.05237138271332,51.03797362605053],[-114.05216753482819,51.0380141041195],[-114.0519905090332,51.03802759680127],[-114.05180275440216,51.03802085046087],[-114.05160963535309,51.0379871187441],[-114.05145406723022,51.03793989429937],[-114.05131995677948,51.03788255026606],[-114.05122339725494,51.03782183297699],[-114.05112147331238,51.03774087646775],[-114.05105710029602,51.037666666210015],[-114.05099809169769,51.0375553506006],[-114.05096590518951,51.03744740793604],[-114.05097126960754,51.037325972137864],[-114.05100882053375,51.03721128248068],[-114.05107319355011,51.03711345872523],[-114.05117511749268,51.037012261519465],[-114.05133605003357,51.03691106409275],[-114.05148088932037,51.03685034553061],[-114.05166864395142,51.036799746668066],[-114.0518993139267,51.03677276058542],[-114.05212998390198,51.03677950710755],[-114.05231237411499,51.036809866445],[-114.05247330665588,51.03686046529651],[-114.05253231525421,51.03688407807496],[-114.05256450176239,51.03685034553061],[-114.05259132385254,51.036846972274844],[-114.05261814594269,51.03685371878615],[-114.05271470546722,51.03690431758977],[-114.05278444290161,51.03694816984154],[-114.05282199382782,51.03697852906848],[-114.052854180336,51.036975155822006],[-114.0529078245163,51.03697852906848],[-114.05292928218842,51.036995395297026],[-114.05302047729492,51.03708984606365],[-114.05303657054901,51.03712020519774],[-114.05302584171295,51.03714719107799],[-114.05300438404083,51.037160684012264],[-114.05303657054901,51.03723489508036],[-114.05306875705719,51.03735295789829],[-114.05304729938507,51.03736645077262],[-114.0529614686966,51.03736645077262]]]}},{"type":"Feature","id":5002940612,"properties":{"name":"TELUS Sky","basemapFeatureId":5002940612,"kind":"building","sourceUrl":"https://www.openstreetmap.org/way/500294061"},"geometry":{"type":"Polygon","coordinates":[[[-114.063481092453,51.046614891627],[-114.06391561031342,51.046628381804055],[-114.06391561031342,51.04664861706232],[-114.06396925449371,51.04664861706232],[-114.06396925449371,51.04661151908215],[-114.0639853477478,51.04661151908215],[-114.06396389007568,51.04692853722767],[-114.06389951705933,51.04692853722767],[-114.0638941526413,51.046935282270994],[-114.06362056732178,51.04692853722767],[-114.06361520290375,51.04699936013387],[-114.06372249126434,51.047002732650526],[-114.06372249126434,51.04701959523004],[-114.06349718570709,51.04701285019897],[-114.06350255012512,51.04692516470561],[-114.06316459178925,51.046915047138015],[-114.0631753206253,51.046685715012785],[-114.06311094760895,51.046685715012785],[-114.06311631202698,51.04660814653698],[-114.06318068504333,51.04661151908215],[-114.0631914138794,51.04660814653698],[-114.0631914138794,51.046591283807686],[-114.06330943107605,51.04659465635402],[-114.06330406665802,51.04661151908215],[-114.063481092453,51.046614891627]]]}},{"type":"Feature","id":24287830131,"properties":{"name":"Wonderland","basemapFeatureId":24287830131,"kind":"artwork point","sourceUrl":"https://tiles.openfreemap.org/planet/20260913_164504_pt/14/3000/5481.pbf"},"geometry":{"type":"Point","coordinates":[-114.06209170818329,51.047650251296346]}},{"type":"Feature","id":272201819,"properties":{"man_made":"ski_jump","sourceUrl":"https://www.openstreetmap.org/way/272201819","name":"Canada Olympic Park ski-jump complex","sourceCheckedAt":"2026-09-16"},"geometry":{"type":"Polygon","coordinates":[[[-114.213114,51.0767853],[-114.2130819,51.0767785],[-114.2129992,51.076761],[-114.2129398,51.0767484],[-114.213027,51.0765858],[-114.2132012,51.0766227],[-114.213114,51.0767853]]]}},{"type":"Feature","id":272201820,"properties":{"building":"yes","man_made":"ski_jump","sourceUrl":"https://www.openstreetmap.org/way/272201820","name":"Canada Olympic Park ski-jump complex","sourceCheckedAt":"2026-09-16"},"geometry":{"type":"Polygon","coordinates":[[[-114.2133277,51.0771844],[-114.2132895,51.0771768],[-114.2132263,51.0771643],[-114.2132019,51.0771595],[-114.2132251,51.0771132],[-114.2133509,51.077138],[-114.2133277,51.0771844]]]}},{"type":"Feature","id":272201821,"properties":{"building":"yes","piste:type":"ski_jump","sourceUrl":"https://www.openstreetmap.org/way/272201821","name":"Canada Olympic Park ski-jump complex","sourceCheckedAt":"2026-09-16"},"geometry":{"type":"Polygon","coordinates":[[[-114.2129013,51.07787],[-114.2128588,51.0778624],[-114.2132263,51.0771643],[-114.2132895,51.0771768],[-114.2129013,51.07787]]]}},{"type":"Feature","id":272201822,"properties":{"building":"yes","piste:type":"ski_jump","sourceUrl":"https://www.openstreetmap.org/way/272201822","name":"Canada Olympic Park ski-jump complex","sourceCheckedAt":"2026-09-16"},"geometry":{"type":"Polygon","coordinates":[[[-114.2129992,51.076761],[-114.212698,51.0773858],[-114.2127769,51.0774048],[-114.2130819,51.0767785],[-114.2129992,51.076761]]]}},{"type":"Feature","id":272201823,"properties":{"landuse":"winter_sports","leisure":"pitch","piste:type":"ski_jump_landing","sport":"ski_jumping","sourceUrl":"https://www.openstreetmap.org/way/272201823","name":"Canada Olympic Park ski-jump complex","sourceCheckedAt":"2026-09-16"},"geometry":{"type":"Polygon","coordinates":[[[-114.2129541,51.0778861],[-114.2129013,51.07787],[-114.2128588,51.0778624],[-114.212812,51.0778547],[-114.212232,51.0787427],[-114.2119478,51.0794063],[-114.2121898,51.0794594],[-114.2125009,51.0787886],[-114.2129541,51.0778861]]]}},{"type":"Feature","id":272201824,"properties":{"man_made":"ski_jump","sourceUrl":"https://www.openstreetmap.org/way/272201824","name":"Canada Olympic Park ski-jump complex","sourceCheckedAt":"2026-09-16"},"geometry":{"type":"Polygon","coordinates":[[[-114.2121241,51.0763336],[-114.2121024,51.0763331],[-114.212047,51.0763316],[-114.2120143,51.0763308],[-114.2120193,51.0762539],[-114.2121292,51.0762567],[-114.2121241,51.0763336]]]}},{"type":"Feature","id":272201825,"properties":{"building":"yes","piste:type":"ski_jump","sourceUrl":"https://www.openstreetmap.org/way/272201825","name":"Canada Olympic Park ski-jump complex","sourceCheckedAt":"2026-09-16"},"geometry":{"type":"Polygon","coordinates":[[[-114.212047,51.0763316],[-114.2120187,51.0764028],[-114.2119056,51.0766868],[-114.2118575,51.0768814],[-114.2119104,51.0768859],[-114.2119752,51.0766536],[-114.2120731,51.0764069],[-114.2121024,51.0763331],[-114.212047,51.0763316]]]}},{"type":"Feature","id":272201826,"properties":{"landuse":"winter_sports","leisure":"pitch","piste:type":"ski_jump_landing","sport":"ski_jumping","sourceUrl":"https://www.openstreetmap.org/way/272201826","name":"Canada Olympic Park ski-jump complex","sourceCheckedAt":"2026-09-16"},"geometry":{"type":"Polygon","coordinates":[[[-114.2118575,51.0768814],[-114.2118084,51.0768851],[-114.2117292,51.077235],[-114.2116404,51.0774612],[-114.2115883,51.0778101],[-114.2115755,51.0778956],[-114.2117148,51.0779077],[-114.2118108,51.0773994],[-114.2119356,51.0768911],[-114.2119104,51.0768859],[-114.2118575,51.0768814]]]}},{"type":"Feature","id":272201827,"properties":{"man_made":"ski_jump","sourceUrl":"https://www.openstreetmap.org/way/272201827","name":"Canada Olympic Park ski-jump complex","sourceCheckedAt":"2026-09-16"},"geometry":{"type":"Polygon","coordinates":[[[-114.2116169,51.0767127],[-114.2115757,51.0767127],[-114.2115757,51.0766768],[-114.2116169,51.0766783],[-114.2116169,51.0767127]]]}},{"type":"Feature","id":272201828,"properties":{"building":"yes","piste:type":"ski_jump","sourceUrl":"https://www.openstreetmap.org/way/272201828","name":"Canada Olympic Park ski-jump complex","sourceCheckedAt":"2026-09-16"},"geometry":{"type":"Polygon","coordinates":[[[-114.2115757,51.0771302],[-114.2115369,51.0771288],[-114.2115757,51.0767127],[-114.2116169,51.0767127],[-114.2115757,51.0771302]]]}},{"type":"Feature","id":272201829,"properties":{"landuse":"winter_sports","leisure":"pitch","piste:type":"ski_jump_landing","sport":"ski_jumping","sourceUrl":"https://www.openstreetmap.org/way/272201829","name":"Canada Olympic Park ski-jump complex","sourceCheckedAt":"2026-09-16"},"geometry":{"type":"Polygon","coordinates":[[[-114.2115369,51.0771288],[-114.2115004,51.0771274],[-114.2114616,51.0776181],[-114.2114844,51.0778103],[-114.2115883,51.0778101],[-114.2116077,51.0774272],[-114.2116306,51.0771302],[-114.2115757,51.0771302],[-114.2115369,51.0771288]]]}},{"type":"Feature","geometry":{"type":"Polygon","coordinates":[[[-114.05709207057953,51.0459403777642],[-114.05706524848938,51.0459370051702],[-114.05707061290741,51.045876298436326],[-114.05685067176819,51.04586955323879],[-114.0568882226944,51.04538389643312],[-114.05712962150574,51.04538726906739],[-114.05709207057953,51.0459403777642]]]},"properties":{"name":"Calgary Municipal Building part","sourceFeatureId":378298570,"sourcePart":42,"render_height":4,"render_min_height":0,"sourceUrl":"https://tiles.openfreemap.org/planet/20260913_164504_pt/14/3001/5481.pbf"}},{"type":"Feature","geometry":{"type":"Polygon","coordinates":[[[-114.05600845813751,51.046135987795594],[-114.05608892440796,51.04613936037509],[-114.05608892440796,51.046189949038194],[-114.05596554279327,51.04618657646236],[-114.05596554279327,51.04616971357959],[-114.05600309371948,51.04616971357959],[-114.05600845813751,51.046135987795594]]]},"properties":{"name":"Calgary Municipal Building part","sourceFeatureId":378298570,"sourcePart":43,"render_height":4,"render_min_height":0,"sourceUrl":"https://tiles.openfreemap.org/planet/20260913_164504_pt/14/3001/5481.pbf"}},{"type":"Feature","geometry":{"type":"Polygon","coordinates":[[[-114.05590653419495,51.04542774065936],[-114.0558260679245,51.04542774065936],[-114.05583679676056,51.04526248143611],[-114.05592262744904,51.04526585407919],[-114.05590653419495,51.04542774065936]]]},"properties":{"name":"Calgary Municipal Building part","sourceFeatureId":108082730,"sourcePart":182,"render_height":5,"render_min_height":0,"sourceUrl":"https://tiles.openfreemap.org/planet/20260913_164504_pt/14/3001/5481.pbf"}},{"type":"Feature","geometry":{"type":"Polygon","coordinates":[[[-114.05767679214478,51.04508035834388],[-114.05712962150574,51.04539401433519],[-114.05709207057953,51.0459403777642],[-114.05706524848938,51.0459370051702],[-114.05707061290741,51.045876298436326],[-114.05631959438324,51.045859435440605],[-114.05609965324402,51.04599433923468],[-114.05601382255554,51.046038182883166],[-114.05600309371948,51.04616971357959],[-114.0557724237442,51.04616296842477],[-114.05583679676056,51.04526248143611],[-114.05603528022766,51.04526922672207],[-114.05605673789978,51.045039886448365],[-114.05598163604736,51.04503651378877],[-114.0559870004654,51.04494207922153],[-114.05715644359589,51.04497917853877],[-114.05715644359589,51.04502302314813],[-114.0576821565628,51.045039886448365],[-114.05767679214478,51.04508035834388]]]},"properties":{"name":"Calgary Municipal Building part","sourceFeatureId":108082730,"sourcePart":184,"render_height":5,"render_min_height":0,"sourceUrl":"https://tiles.openfreemap.org/planet/20260913_164504_pt/14/3001/5481.pbf"}},{"type":"Feature","geometry":{"type":"Polygon","coordinates":[[[-114.05696332454681,51.046166341002305],[-114.05704915523529,51.046166341002305],[-114.05704915523529,51.04617983131001],[-114.0570867061615,51.04617983131001],[-114.0570867061615,51.04623041992892],[-114.05695796012878,51.04623041992892],[-114.05696332454681,51.046166341002305]]]},"properties":{"name":"Calgary Municipal Building part","sourceFeatureId":378297690,"sourcePart":40,"render_height":8,"render_min_height":0,"sourceUrl":"https://tiles.openfreemap.org/planet/20260913_164504_pt/14/3001/5481.pbf"}},{"type":"Feature","geometry":{"type":"Polygon","coordinates":[[[-114.05685067176819,51.04586955323879],[-114.05631959438324,51.045859435440605],[-114.05631959438324,51.045849317640204],[-114.05634105205536,51.045849317640204],[-114.05635178089142,51.04569080514551],[-114.05660927295685,51.04569417775744],[-114.05662000179291,51.04553566473186],[-114.05687749385834,51.045542409978026],[-114.05685067176819,51.04586955323879]]]},"properties":{"name":"Calgary Municipal Building part","sourceFeatureId":378297690,"sourcePart":41,"render_height":8,"render_min_height":0,"sourceUrl":"https://tiles.openfreemap.org/planet/20260913_164504_pt/14/3001/5481.pbf"}},{"type":"Feature","geometry":{"type":"Polygon","coordinates":[[[-114.05592262744904,51.04526585407919],[-114.05606746673584,51.04526922672207],[-114.05605673789978,51.045431113290476],[-114.05590653419495,51.04542774065936],[-114.05592262744904,51.04526585407919]]]},"properties":{"name":"Calgary Municipal Building part","sourceFeatureId":378297690,"sourcePart":42,"render_height":8,"render_min_height":0,"sourceUrl":"https://tiles.openfreemap.org/planet/20260913_164504_pt/14/3001/5481.pbf"}},{"type":"Feature","geometry":{"type":"Polygon","coordinates":[[[-114.05690431594849,51.04496906054612],[-114.05715644359589,51.04497917853877],[-114.05715107917786,51.04507024037329],[-114.05689895153046,51.04506349505837],[-114.05690431594849,51.04496906054612]]]},"properties":{"name":"Calgary Municipal Building part","sourceFeatureId":378297690,"sourcePart":43,"render_height":8,"render_min_height":0,"sourceUrl":"https://tiles.openfreemap.org/planet/20260913_164504_pt/14/3001/5481.pbf"}},{"type":"Feature","geometry":{"type":"Polygon","coordinates":[[[-114.05590653419495,51.04542774065936],[-114.05605673789978,51.045431113290476],[-114.05604600906372,51.04559299929309],[-114.05589580535889,51.04558962667383],[-114.05590653419495,51.04542774065936]]]},"properties":{"name":"Calgary Municipal Building part","sourceFeatureId":378299020,"sourcePart":35,"render_height":11,"render_min_height":0,"sourceUrl":"https://tiles.openfreemap.org/planet/20260913_164504_pt/14/3001/5481.pbf"}},{"type":"Feature","geometry":{"type":"Polygon","coordinates":[[[-114.05664682388306,51.04496231521645],[-114.05690431594849,51.04496906054612],[-114.05689895153046,51.04506349505837],[-114.05664145946503,51.04505674974246],[-114.05664682388306,51.04496231521645]]]},"properties":{"name":"Calgary Municipal Building part","sourceFeatureId":378299020,"sourcePart":36,"render_height":11,"render_min_height":0,"sourceUrl":"https://tiles.openfreemap.org/planet/20260913_164504_pt/14/3001/5481.pbf"}},{"type":"Feature","geometry":{"type":"Polygon","coordinates":[[[-114.0576821565628,51.045039886448365],[-114.05767679214478,51.04508035834388],[-114.05741393566132,51.04523212763712],[-114.0574300289154,51.04503314112901],[-114.0576821565628,51.045039886448365]]]},"properties":{"name":"Calgary Municipal Building part","sourceFeatureId":378299020,"sourcePart":37,"render_height":11,"render_min_height":0,"sourceUrl":"https://tiles.openfreemap.org/planet/20260913_164504_pt/14/3001/5481.pbf"}},{"type":"Feature","geometry":{"type":"Polygon","coordinates":[[[-114.05590653419495,51.04542774065936],[-114.05589580535889,51.04558962667383],[-114.05581533908844,51.045586254054285],[-114.0558260679245,51.04542774065936],[-114.05590653419495,51.04542774065936]]]},"properties":{"name":"Calgary Municipal Building part","sourceFeatureId":14555663142,"sourcePart":0,"render_height":11,"render_min_height":7,"sourceUrl":"https://tiles.openfreemap.org/planet/20260913_164504_pt/14/3001/5481.pbf"}},{"type":"Feature","geometry":{"type":"Polygon","coordinates":[[[-114.05695796012878,51.04621018448799],[-114.05596554279327,51.04618657646236],[-114.05596554279327,51.04616971357959],[-114.05600309371948,51.04616971357959],[-114.05601382255554,51.046038182883166],[-114.05609965324402,51.04599433923468],[-114.05631959438324,51.045859435440605],[-114.05707061290741,51.045876298436326],[-114.05704915523529,51.04617983131001],[-114.0570867061615,51.04617983131001],[-114.0570867061615,51.04623041992892],[-114.05695796012878,51.04623041992892],[-114.05695796012878,51.04621018448799]]]},"properties":{"name":"Calgary Municipal Building part","sourceFeatureId":29554020,"sourcePart":22,"render_height":15,"render_min_height":0,"sourceUrl":"https://tiles.openfreemap.org/planet/20260913_164504_pt/14/3001/5481.pbf"}},{"type":"Feature","geometry":{"type":"Polygon","coordinates":[[[-114.05707061290741,51.045876298436326],[-114.05706524848938,51.04597073109906],[-114.05697405338287,51.04597073109906],[-114.05695796012878,51.04621018448799],[-114.05608892440796,51.046189949038194],[-114.05609965324402,51.045947122951446],[-114.05601918697357,51.045943750357964],[-114.0560245513916,51.045852690240594],[-114.05707061290741,51.045876298436326]]]},"properties":{"name":"Calgary Municipal Building part","sourceFeatureId":29554020,"sourcePart":23,"render_height":15,"render_min_height":0,"sourceUrl":"https://tiles.openfreemap.org/planet/20260913_164504_pt/14/3001/5481.pbf"}},{"type":"Feature","geometry":{"type":"Polygon","coordinates":[[[-114.05588507652283,51.04575151212248],[-114.05589580535889,51.04558962667383],[-114.05604600906372,51.04559299929309],[-114.05602991580963,51.04575488472997],[-114.05588507652283,51.04575151212248]]]},"properties":{"name":"Calgary Municipal Building part","sourceFeatureId":29554020,"sourcePart":24,"render_height":15,"render_min_height":0,"sourceUrl":"https://tiles.openfreemap.org/planet/20260913_164504_pt/14/3001/5481.pbf"}},{"type":"Feature","geometry":{"type":"Polygon","coordinates":[[[-114.05639469623566,51.044955569885786],[-114.05664682388306,51.04496231521645],[-114.05664145946503,51.04505674974246],[-114.05638933181763,51.04505000442555],[-114.05639469623566,51.044955569885786]]]},"properties":{"name":"Calgary Municipal Building part","sourceFeatureId":29554020,"sourcePart":25,"render_height":15,"render_min_height":0,"sourceUrl":"https://tiles.openfreemap.org/planet/20260913_164504_pt/14/3001/5481.pbf"}},{"type":"Feature","geometry":{"type":"Polygon","coordinates":[[[-114.05589580535889,51.04558962667383],[-114.05588507652283,51.04575151212248],[-114.05580461025238,51.04574813951473],[-114.05581533908844,51.045586254054285],[-114.05589580535889,51.04558962667383]]]},"properties":{"name":"Calgary Municipal Building part","sourceFeatureId":14555663162,"sourcePart":0,"render_height":15,"render_min_height":7,"sourceUrl":"https://tiles.openfreemap.org/planet/20260913_164504_pt/14/3001/5481.pbf"}},{"type":"Feature","geometry":{"type":"Polygon","coordinates":[[[-114.05696332454681,51.046166341002305],[-114.05697405338287,51.04597073109906],[-114.05706524848938,51.04597073109906],[-114.05704915523529,51.046166341002305],[-114.05696332454681,51.046166341002305]]]},"properties":{"name":"Calgary Municipal Building part","sourceFeatureId":378299050,"sourcePart":6,"render_height":19,"render_min_height":0,"sourceUrl":"https://tiles.openfreemap.org/planet/20260913_164504_pt/14/3001/5481.pbf"}},{"type":"Feature","geometry":{"type":"Polygon","coordinates":[[[-114.05608892440796,51.04613936037509],[-114.05600845813751,51.046135987795594],[-114.05601918697357,51.045943750357964],[-114.05609965324402,51.045947122951446],[-114.05608892440796,51.04613936037509]]]},"properties":{"name":"Calgary Municipal Building part","sourceFeatureId":378299050,"sourcePart":7,"render_height":19,"render_min_height":0,"sourceUrl":"https://tiles.openfreemap.org/planet/20260913_164504_pt/14/3001/5481.pbf"}},{"type":"Feature","geometry":{"type":"Polygon","coordinates":[[[-114.0559870004654,51.04494207922153],[-114.05639469623566,51.044955569885786],[-114.05638933181763,51.04505000442555],[-114.05598163604736,51.04503651378877],[-114.0559870004654,51.04494207922153]]]},"properties":{"name":"Calgary Municipal Building part","sourceFeatureId":378299050,"sourcePart":8,"render_height":19,"render_min_height":0,"sourceUrl":"https://tiles.openfreemap.org/planet/20260913_164504_pt/14/3001/5481.pbf"}},{"type":"Feature","geometry":{"type":"Polygon","coordinates":[[[-114.0574300289154,51.04503314112901],[-114.05741393566132,51.04523212763712],[-114.05715644359589,51.04522538234576],[-114.05717253684998,51.04502302314813],[-114.0574300289154,51.04503314112901]]]},"properties":{"name":"Calgary Municipal Building part","sourceFeatureId":378299050,"sourcePart":9,"render_height":19,"render_min_height":0,"sourceUrl":"https://tiles.openfreemap.org/planet/20260913_164504_pt/14/3001/5481.pbf"}},{"type":"Feature","geometry":{"type":"Polygon","coordinates":[[[-114.05601382255554,51.046038182883166],[-114.05600309371948,51.04616971357959],[-114.0557724237442,51.04616296842477],[-114.05579924583435,51.045822336828365],[-114.0558797121048,51.04582570943069],[-114.05588507652283,51.04576500255098],[-114.05579924583435,51.045761629944224],[-114.05580461025238,51.04574813951473],[-114.05602991580963,51.04575488472997],[-114.05601382255554,51.046038182883166]]]},"properties":{"name":"Calgary Municipal Building part","sourceFeatureId":14555662920,"sourcePart":0,"render_height":19,"render_min_height":7,"sourceUrl":"https://tiles.openfreemap.org/planet/20260913_164504_pt/14/3001/5481.pbf"}},{"type":"Feature","geometry":{"type":"Polygon","coordinates":[[[-114.05741393566132,51.04523212763712],[-114.05723690986633,51.04533330688972],[-114.05714571475983,51.04538726906739],[-114.05715644359589,51.04522538234576],[-114.05741393566132,51.04523212763712]]]},"properties":{"name":"Calgary Municipal Building part","sourceFeatureId":14555662920,"sourcePart":1,"render_height":19,"render_min_height":7,"sourceUrl":"https://tiles.openfreemap.org/planet/20260913_164504_pt/14/3001/5481.pbf"}},{"type":"Feature","geometry":{"type":"Polygon","coordinates":[[[-114.0558797121048,51.04582570943069],[-114.05579924583435,51.045822336828365],[-114.05579924583435,51.045761629944224],[-114.05588507652283,51.04576500255098],[-114.0558797121048,51.04582570943069]]]},"properties":{"name":"Calgary Municipal Building part","sourceFeatureId":14555663112,"sourcePart":0,"render_height":19,"render_min_height":14,"sourceUrl":"https://tiles.openfreemap.org/planet/20260913_164504_pt/14/3001/5481.pbf"}},{"type":"Feature","geometry":{"type":"Polygon","coordinates":[[[-114.05714571475983,51.04538726906739],[-114.0568882226944,51.04538389643312],[-114.05690968036652,51.04506349505837],[-114.05713498592377,51.04507024037329],[-114.0571403503418,51.04502302314813],[-114.05717253684998,51.04502302314813],[-114.05714571475983,51.04538726906739]]]},"properties":{"name":"Calgary Municipal Building part","sourceFeatureId":378300840,"sourcePart":3,"render_height":26,"render_min_height":0,"sourceUrl":"https://tiles.openfreemap.org/planet/20260913_164504_pt/14/3001/5481.pbf"}},{"type":"Feature","geometry":{"type":"Polygon","coordinates":[[[-114.0568882226944,51.04538389643312],[-114.05714571475983,51.04538726906739],[-114.05687749385834,51.045542409978026],[-114.0568882226944,51.04538389643312]]]},"properties":{"name":"Calgary Municipal Building part","sourceFeatureId":14555662940,"sourcePart":0,"render_height":26,"render_min_height":10,"sourceUrl":"https://tiles.openfreemap.org/planet/20260913_164504_pt/14/3001/5481.pbf"}},{"type":"Feature","geometry":{"type":"Polygon","coordinates":[[[-114.05690968036652,51.04506349505837],[-114.05691504478455,51.045016277826306],[-114.0571403503418,51.04502302314813],[-114.05713498592377,51.04507024037329],[-114.05690968036652,51.04506349505837]]]},"properties":{"name":"Calgary Municipal Building part","sourceFeatureId":14555662940,"sourcePart":1,"render_height":26,"render_min_height":10,"sourceUrl":"https://tiles.openfreemap.org/planet/20260913_164504_pt/14/3001/5481.pbf"}},{"type":"Feature","geometry":{"type":"Polygon","coordinates":[[[-114.05687749385834,51.045542409978026],[-114.05662000179291,51.04553566473186],[-114.05665218830109,51.04505674974246],[-114.05690968036652,51.04506349505837],[-114.05687749385834,51.045542409978026]]]},"properties":{"name":"Calgary Municipal Building part","sourceFeatureId":14555662892,"sourcePart":0,"render_height":33,"render_min_height":0,"sourceUrl":"https://tiles.openfreemap.org/planet/20260913_164504_pt/14/3001/5481.pbf"}},{"type":"Feature","geometry":{"type":"Polygon","coordinates":[[[-114.05687749385834,51.045542409978026],[-114.05660927295685,51.04569417775744],[-114.05662000179291,51.04553566473186],[-114.05687749385834,51.045542409978026]]]},"properties":{"name":"Calgary Municipal Building part","sourceFeatureId":14555662930,"sourcePart":0,"render_height":33,"render_min_height":14,"sourceUrl":"https://tiles.openfreemap.org/planet/20260913_164504_pt/14/3001/5481.pbf"}},{"type":"Feature","geometry":{"type":"Polygon","coordinates":[[[-114.05665755271912,51.045009532503514],[-114.05688285827637,51.045016277826306],[-114.05687749385834,51.04506349505837],[-114.05665218830109,51.04505674974246],[-114.05665755271912,51.045009532503514]]]},"properties":{"name":"Calgary Municipal Building part","sourceFeatureId":14555662930,"sourcePart":1,"render_height":33,"render_min_height":14,"sourceUrl":"https://tiles.openfreemap.org/planet/20260913_164504_pt/14/3001/5481.pbf"}},{"type":"Feature","geometry":{"type":"Polygon","coordinates":[[[-114.05690968036652,51.04506349505837],[-114.05687749385834,51.04506349505837],[-114.05688285827637,51.045016277826306],[-114.05691504478455,51.045016277826306],[-114.05690968036652,51.04506349505837]]]},"properties":{"name":"Calgary Municipal Building part","sourceFeatureId":14555663042,"sourcePart":0,"render_height":33,"render_min_height":10,"sourceUrl":"https://tiles.openfreemap.org/planet/20260913_164504_pt/14/3001/5481.pbf"}},{"type":"Feature","geometry":{"type":"Polygon","coordinates":[[[-114.05660927295685,51.04569417775744],[-114.05635178089142,51.04569080514551],[-114.05640006065369,51.04505000442555],[-114.05665218830109,51.04505674974246],[-114.05660927295685,51.04569417775744]]]},"properties":{"name":"Calgary Municipal Building part","sourceFeatureId":14555662902,"sourcePart":0,"render_height":41,"render_min_height":0,"sourceUrl":"https://tiles.openfreemap.org/planet/20260913_164504_pt/14/3001/5481.pbf"}},{"type":"Feature","geometry":{"type":"Polygon","coordinates":[[[-114.05640006065369,51.045002787179726],[-114.05662536621094,51.045009532503514],[-114.05662536621094,51.04505674974246],[-114.05640006065369,51.04505000442555],[-114.05640006065369,51.045002787179726]]]},"properties":{"name":"Calgary Municipal Building part","sourceFeatureId":14555662980,"sourcePart":0,"render_height":41,"render_min_height":18,"sourceUrl":"https://tiles.openfreemap.org/planet/20260913_164504_pt/14/3001/5481.pbf"}},{"type":"Feature","geometry":{"type":"Polygon","coordinates":[[[-114.05660927295685,51.04569417775744],[-114.05634105205536,51.045849317640204],[-114.05635178089142,51.04569080514551],[-114.05660927295685,51.04569417775744]]]},"properties":{"name":"Calgary Municipal Building part","sourceFeatureId":14555662980,"sourcePart":1,"render_height":41,"render_min_height":18,"sourceUrl":"https://tiles.openfreemap.org/planet/20260913_164504_pt/14/3001/5481.pbf"}},{"type":"Feature","geometry":{"type":"Polygon","coordinates":[[[-114.05665218830109,51.04505674974246],[-114.05662536621094,51.04505674974246],[-114.05662536621094,51.045009532503514],[-114.05665755271912,51.045009532503514],[-114.05665218830109,51.04505674974246]]]},"properties":{"name":"Calgary Municipal Building part","sourceFeatureId":14555663022,"sourcePart":0,"render_height":41,"render_min_height":14,"sourceUrl":"https://tiles.openfreemap.org/planet/20260913_164504_pt/14/3001/5481.pbf"}},{"type":"Feature","geometry":{"type":"Polygon","coordinates":[[[-114.05634105205536,51.045849317640204],[-114.05599772930145,51.045839199837616],[-114.05605673789978,51.045039886448365],[-114.05640006065369,51.04505000442555],[-114.05634105205536,51.045849317640204]]]},"properties":{"name":"Calgary Municipal Building part","sourceFeatureId":14555662910,"sourcePart":2,"render_height":48,"render_min_height":0,"sourceUrl":"https://tiles.openfreemap.org/planet/20260913_164504_pt/14/3001/5481.pbf"}},{"type":"Feature","geometry":{"type":"Polygon","coordinates":[[[-114.05634105205536,51.045849317640204],[-114.05609965324402,51.04599433923468],[-114.05600309371948,51.04604492805615],[-114.0559870004654,51.04604492805615],[-114.05599772930145,51.045839199837616],[-114.05634105205536,51.045849317640204]]]},"properties":{"name":"Calgary Municipal Building part","sourceFeatureId":14555662970,"sourcePart":0,"render_height":48,"render_min_height":21,"sourceUrl":"https://tiles.openfreemap.org/planet/20260913_164504_pt/14/3001/5481.pbf"}},{"type":"Feature","geometry":{"type":"Polygon","coordinates":[[[-114.05636787414551,51.04504663176675],[-114.05605673789978,51.045039886448365],[-114.05605673789978,51.044992669192254],[-114.05636787414551,51.04499941451749],[-114.05636787414551,51.04504663176675]]]},"properties":{"name":"Calgary Municipal Building part","sourceFeatureId":14555662970,"sourcePart":1,"render_height":48,"render_min_height":21,"sourceUrl":"https://tiles.openfreemap.org/planet/20260913_164504_pt/14/3001/5481.pbf"}},{"type":"Feature","geometry":{"type":"Polygon","coordinates":[[[-114.05636787414551,51.04499941451749],[-114.05640006065369,51.045002787179726],[-114.05640006065369,51.04505000442555],[-114.05636787414551,51.04504663176675],[-114.05636787414551,51.04499941451749]]]},"properties":{"name":"Calgary Municipal Building part","sourceFeatureId":14555663012,"sourcePart":0,"render_height":48,"render_min_height":18,"sourceUrl":"https://tiles.openfreemap.org/planet/20260913_164504_pt/14/3001/5481.pbf"}},{"type":"Feature","geometry":{"type":"Polygon","coordinates":[[[-114.0554156,51.0454659],[-114.0554143,51.0454611],[-114.0553903,51.0452863],[-114.0553562,51.0452089],[-114.0553346,51.0451582],[-114.0552516,51.0450185],[-114.0551083,51.0448868],[-114.0550793,51.0448598],[-114.0548875,51.0448526],[-114.0546107,51.0448437],[-114.0545952,51.0451473],[-114.0546041,51.0451977],[-114.054616,51.0452655],[-114.054657,51.0453796],[-114.0547552,51.0455825],[-114.0547814,51.0455767],[-114.0548434,51.0457886],[-114.0549672,51.0459696],[-114.055077,51.0460804],[-114.055115,51.0461074],[-114.0552425,51.0459775],[-114.0552852,51.0459162],[-114.0553293,51.0458317],[-114.0553981,51.0456458],[-114.0554156,51.0454659]]]},"properties":{"name":"Calgary Central Library","sourceUrl":"https://www.openstreetmap.org/way/496824026"}},{"type":"Feature","geometry":{"type":"Polygon","coordinates":[[[-114.057602,51.0461929],[-114.0574745,51.0461901],[-114.0574733,51.0462103],[-114.0572904,51.0462062],[-114.0572916,51.0461853],[-114.057089,51.0461802],[-114.0570868,51.0461801],[-114.0570918,51.0460931],[-114.0570557,51.0460923],[-114.0570608,51.0460066],[-114.0570864,51.0460072],[-114.0570903,51.0459388],[-114.0570907,51.045932],[-114.0573204,51.0459372],[-114.0573217,51.045914],[-114.0574892,51.0459178],[-114.057488,51.0459385],[-114.0576141,51.0459414],[-114.0576083,51.0460433],[-114.0576707,51.0460447],[-114.0576679,51.0460945],[-114.0576076,51.0460932],[-114.057602,51.0461929]]]},"properties":{"name":"Calgary City Hall","sourceUrl":"https://www.openstreetmap.org/way/37829977"}},{"type":"Feature","geometry":{"type":"Polygon","coordinates":[[[-114.0576787,51.0450812],[-114.0574147,51.0452329],[-114.0573262,51.0452835],[-114.0572371,51.0453345],[-114.0571843,51.0453651],[-114.0571457,51.0453873],[-114.0571306,51.0453941],[-114.057098,51.0458342],[-114.0570907,51.045932],[-114.0570903,51.0459388],[-114.0570648,51.0459383],[-114.0570685,51.045876],[-114.0568522,51.045871],[-114.0563207,51.0458586],[-114.0560983,51.0459933],[-114.0560123,51.0460373],[-114.0560066,51.0461374],[-114.0560047,51.0461712],[-114.0559659,51.0461702],[-114.0557736,51.0461635],[-114.0557974,51.0458222],[-114.0557998,51.0457905],[-114.0558019,51.0457625],[-114.0558029,51.0457481],[-114.0558144,51.045586],[-114.0558259,51.0454264],[-114.0558381,51.0452634],[-114.0559205,51.0452657],[-114.0560372,51.0452689],[-114.0560397,51.0452361],[-114.0560435,51.0451875],[-114.0560542,51.0450396],[-114.0559822,51.0450376],[-114.0559888,51.0449436],[-114.056648,51.0449629],[-114.0569056,51.0449699],[-114.056941,51.0449709],[-114.056988,51.0449724],[-114.0570371,51.0449739],[-114.0571255,51.0449766],[-114.0571589,51.0449776],[-114.0571553,51.0450241],[-114.0571707,51.0450244],[-114.0574288,51.0450316],[-114.057682,51.0450406],[-114.0576787,51.0450812]]]},"properties":{"name":"Calgary Municipal Building","sourceUrl":"https://www.openstreetmap.org/way/27055405"}}]}
