{
  "type": "FeatureCollection",
  "metadata": {
    "source": "https://tiles.openfreemap.org/planet/20260913_164504_pt/14/3001/5481.pbf",
    "attribution": "\u00a9 OpenStreetMap contributors",
    "licenceUrl": "https://opendatacommons.org/licenses/odbl/1-0/",
    "method": "Only the unrelated second polygon of merged feature 4968240260, restored when suppressing the Library part.",
    "title": "Library merged-feature companion building restore",
    "retrievedAt": "2026-09-16",
    "tileSnapshot": "20260913_164504_pt",
    "sourceFeatureId": 4968240260,
    "sourcePolygonPart": 1,
    "sourceFeatureParts": 2,
    "sourceLayer": "building",
    "coordinateSystem": "EPSG:4326",
    "privacy": "Only polygon geometry and rendering heights; no mapper identities or editing metadata."
  },
  "features": [
    {
      "type": "Feature",
      "geometry": {
        "type": "Polygon",
        "coordinates": [
          [
            [
              -114.0489113330841,
              51.044361976941985
            ],
            [
              -114.04890596866608,
              51.0444125675462
            ],
            [
              -114.04895424842834,
              51.0444125675462
            ],
            [
              -114.04895424842834,
              51.04444292188222
            ],
            [
              -114.04897034168243,
              51.04444292188222
            ],
            [
              -114.0489649772644,
              51.044483394299306
            ],
            [
              -114.04895424842834,
              51.044483394299306
            ],
            [
              -114.04894888401031,
              51.044540730162964
            ],
            [
              -114.0489649772644,
              51.044540730162964
            ],
            [
              -114.04895961284637,
              51.044581202494584
            ],
            [
              -114.04894351959229,
              51.044581202494584
            ],
            [
              -114.04893815517426,
              51.044638538237166
            ],
            [
              -114.04895424842834,
              51.044638538237166
            ],
            [
              -114.04895424842834,
              51.04468238316892
            ],
            [
              -114.04893815517426,
              51.04467901048335
            ],
            [
              -114.04893279075623,
              51.0447093646448
            ],
            [
              -114.04895961284637,
              51.0447093646448
            ],
            [
              -114.04895961284637,
              51.04470599196114
            ],
            [
              -114.04906153678894,
              51.04470599196114
            ],
            [
              -114.04904007911682,
              51.04501290516504
            ],
            [
              -114.04894888401031,
              51.045009532503514
            ],
            [
              -114.04894351959229,
              51.04502302314813
            ],
            [
              -114.04886841773987,
              51.04501965048735
            ],
            [
              -114.0488737821579,
              51.0449758058748
            ],
            [
              -114.0488201379776,
              51.044972433210575
            ],
            [
              -114.0488201379776,
              51.04494207922153
            ],
            [
              -114.04880404472351,
              51.04494207922153
            ],
            [
              -114.04880940914154,
              51.04489486186574
            ],
            [
              -114.04882550239563,
              51.04489486186574
            ],
            [
              -114.04883086681366,
              51.0447768182656
            ],
            [
              -114.048712849617,
              51.04477344558691
            ],
            [
              -114.048712849617,
              51.044746464148375
            ],
            [
              -114.04869675636292,
              51.04474309146747
            ],
            [
              -114.04870212078094,
              51.04469587390881
            ],
            [
              -114.04871821403503,
              51.04469587390881
            ],
            [
              -114.04872357845306,
              51.04464191092572
            ],
            [
              -114.04870748519897,
              51.04464191092572
            ],
            [
              -114.048712849617,
              51.044598065955654
            ],
            [
              -114.04872357845306,
              51.044598065955654
            ],
            [
              -114.0487289428711,
              51.044547475554026
            ],
            [
              -114.048712849617,
              51.044547475554026
            ],
            [
              -114.048712849617,
              51.04450025779599
            ],
            [
              -114.04873430728912,
              51.04450025779599
            ],
            [
              -114.04873430728912,
              51.044446294585015
            ],
            [
              -114.04872357845306,
              51.044446294585015
            ],
            [
              -114.04872357845306,
              51.044399076723835
            ],
            [
              -114.04873967170715,
              51.044399076723835
            ],
            [
              -114.04874503612518,
              51.04436872235908
            ],
            [
              -114.04883623123169,
              51.044372095067246
            ],
            [
              -114.04883623123169,
              51.04435860423308
            ],
            [
              -114.0489113330841,
              51.044361976941985
            ]
          ]
        ]
      },
      "properties": {
        "originalFeatureId": 4968240260,
        "render_height": 21,
        "render_min_height": 0
      },
      "id": "library-companion-4968240260-1"
    }
  ]
}
