{"type":"FeatureCollection","metadata":{"capturedAt":"2026-09-13T20:43:55.217541Z","title":"Calgary Airport Noise Exposure Forecast contours","source":{"datasetId":"g5qu-w8fb","title":"Noise Exposure Forecast Contours","publisher":"The City of Calgary","url":"https://data.calgary.ca/d/g5qu-w8fb","description":"Noise Exposure Forecast (NEF) contours are referred to by Section 19 of the Land Use Bylaw, the Calgary International Airport Vicinity Protection Area Regulations and Calgary International Airport Zoning Regulations. They are a development constraint for properties that are within the contours. In August 2021, changes were approved to the AVPA through a Ministerial Order.\n\nThis dataset outlines the boundaries of the Noise Exposure Forecast contours associated with the Airport Vicinity Protection Area. For more information, visit <a><href=\"http://www.calgary.ca/PDA/pd/Pages/Calgary-Land-Use-bylaw-1P2007/Airport-vicinity-protection-area.aspx\">Airport Vicinity Protection Area</a>","sourceUpdatedAt":"2026-09-01T18:33:32Z","query":{"file":"noise-nef-raw.json","datasetId":"g5qu-w8fb","url":"https://data.calgary.ca/resource/g5qu-w8fb.json?%24limit=5000","query":{"$limit":5000},"retrievedAt":"2026-09-13T20:36:52.831433Z","records":5,"bytes":84010,"sampleWithoutGeometry":{"dblevel":"25.0"}},"schema":[{"field":"dblevel","type":"number","description":"Decibel Level"},{"field":"multipolygon","type":"multipolygon","description":""}]},"metric":"NEF index, not an instantaneous dBA measurement","caveat":"Contours are planning constraints associated with the Airport Vicinity Protection Area. Being outside a contour does not mean aircraft will be inaudible. The source field is named dblevel, but the mapped metric is NEF; do not relabel it as a measured decibel level at a home.","planningSourceUrl":"https://www.calgary.ca/planning/land-use/airport-vicinity-protection-area.html","metricSourceUrl":"https://tc.canada.ca/en/aviation/operating-airports-aerodromes/managing-noise-aircraft/noise-exposure-forecast-related-programs","flightTrackingUrl":"https://www.yyc.com/en-us/noise-management/flight-tracking","displayGeometry":"Full published contour features, simplified at 0.00002 degrees. No property-level classification is produced.","licence":{"name":"Open Government Licence – City of Calgary","url":"https://data.calgary.ca/stories/s/Open-Calgary-Terms-of-Use/u45n-7awa/","attribution":"Contains information licensed under the Open Government Licence – City of Calgary."}},"features":[{"type":"Feature","id":"nef-ff512b2118b0","properties":{"id":"nef-ff512b2118b0","nefIndex":25.0,"sourceFieldName":"dblevel","label":"NEF 25","sourceDatasetId":"g5qu-w8fb"},"geometry":{"type":"Polygon","coordinates":[[[-113.9795197,51.194049],[-113.9806537,51.19468],[-113.981016,51.1958486],[-113.9816743,51.1981745],[-113.982534,51.2015567],[-113.983169,51.2042968],[-113.9839148,51.207725],[-113.985421,51.2149976],[-113.9859747,51.2173895],[-113.9863652,51.2188504],[-113.9865708,51.2197548],[-113.9878615,51.2244236],[-113.9882052,51.2254872],[-113.9885586,51.2267255],[-113.9893672,51.2292004],[-113.9904362,51.2268884],[-113.9913283,51.2247084],[-113.9921732,51.2224988],[-113.9924828,51.2215224],[-113.9929503,51.2202466],[-113.9937328,51.2176585],[-113.9945119,51.2130068],[-113.9948972,51.2105087],[-113.9959402,51.2029435],[-113.9968724,51.1953088],[-113.9980971,51.1838359],[-113.9992845,51.179638],[-114.0001556,51.176898],[-114.0011883,51.174158],[-114.0024562,51.1714804],[-114.0068148,51.1719165],[-114.0080181,51.1741577],[-114.0091434,51.1768977],[-114.010098,51.1796376],[-114.011176,51.1830395],[-114.0127105,51.1923746],[-114.0135596,51.1973219],[-114.0144465,51.2022454],[-114.015544,51.2079185],[-114.0159322,51.2095335],[-114.0165577,51.211881],[-114.0172421,51.2141916],[-114.0187108,51.2187501],[-114.0199121,51.222116],[-114.021947,51.2192746],[-114.0232467,51.2173512],[-114.0242721,51.2157202],[-114.025335,51.2104447],[-114.0266672,51.2030639],[-114.0270823,51.2005854],[-114.0278543,51.1955921],[-114.0286189,51.1900747],[-114.029903,51.1823742],[-114.030408,51.1796341],[-114.0315569,51.1741538],[-114.0316882,51.1733497],[-114.0326625,51.1659334],[-114.0331065,51.1631933],[-114.033742,51.1604531],[-114.0345172,51.1577128],[-114.0355055,51.1549725],[-114.0368754,51.1522321],[-114.0373085,51.1515899],[-114.0385321,51.1502618],[-114.0394802,51.1494912],[-114.040636,51.1488451],[-114.0416623,51.1484539],[-114.0436948,51.1480283],[-114.0460179,51.147613],[-114.0468318,51.1472607],[-114.0472557,51.1467483],[-114.047701,51.1450684],[-114.0480292,51.144008],[-114.0485011,51.1428328],[-114.0488051,51.142251],[-114.0492512,51.1412674],[-114.0495819,51.1407736],[-114.0503658,51.1399472],[-114.0515851,51.1392939],[-114.0540964,51.1385253],[-114.0547196,51.1384004],[-114.0588649,51.1383908],[-114.0593638,51.1383409],[-114.061991,51.1385214],[-114.0633394,51.138578],[-114.0641048,51.1385202],[-114.0644263,51.1378931],[-114.0654626,51.1370591],[-114.0655863,51.1357794],[-114.0645238,51.1350892],[-114.0634246,51.1341372],[-114.0626019,51.1335581],[-114.06227,51.1330412],[-114.0606493,51.1320464],[-114.0584984,51.1306597],[-114.0580466,51.1303033],[-114.0564104,51.1292334],[-114.0547075,51.1281847],[-114.0537683,51.1275653],[-114.05227,51.1263585],[-114.0502539,51.1248268],[-114.04782,51.1220878],[-114.0472984,51.1212657],[-114.0461822,51.1193485],[-114.0453197,51.117029],[-114.0452081,51.1166088],[-114.044127,51.1111291],[-114.0439023,51.1083892],[-114.0439558,51.1056491],[-114.0442211,51.102909],[-114.0448485,51.1001687],[-114.0452717,51.0997286],[-114.0472933,51.0974277],[-114.0484933,51.0946871],[-114.0480634,51.0892072],[-114.0476775,51.0853831],[-114.0472957,51.0809874],[-114.0468436,51.0804254],[-114.0459509,51.0801131],[-114.0443594,51.0799861],[-114.0432279,51.079964],[-114.0416006,51.0798021],[-114.0398822,51.0793323],[-114.0372495,51.078284],[-114.0357124,51.0764788],[-114.035035,51.0755116],[-114.0345001,51.0745019],[-114.0336446,51.0727719],[-114.0335065,51.0723871],[-114.0328943,51.0706014],[-114.0327445,51.0700321],[-114.0321802,51.0672922],[-114.0317504,51.0645523],[-114.0312784,51.0607985],[-114.0297821,51.0473238],[-114.0285246,51.0371244],[-114.027955,51.0320296],[-114.0273086,51.0269554],[-114.0265852,51.0219297],[-114.0258022,51.0169419],[-114.0249542,51.0119951],[-114.0241634,51.007746],[-114.0224485,51.005354],[-114.0210324,51.0035071],[-114.0198178,51.002004],[-114.0185444,51.006209],[-114.0172675,51.0108827],[-114.0166669,51.0132435],[-114.0161031,51.0156274],[-114.0154807,51.0185298],[-114.0143842,51.0255018],[-114.013668,51.0305294],[-114.012997,51.0355856],[-114.0120569,51.0432119],[-114.0111444,51.0514841],[-114.0092255,51.0618162],[-114.0086634,51.0645563],[-114.0079938,51.0672964],[-114.0071745,51.0700365],[-114.0067999,51.0710047],[-114.0054759,51.0719424],[-114.0044066,51.0727767],[-114.0033626,51.073351],[-114.002451,51.0739031],[-114.0016795,51.0727768],[-114.0004521,51.0700367],[-113.9995629,51.0672967],[-113.9988397,51.0645566],[-113.9981021,51.061482],[-113.9976301,51.056634],[-113.9970827,51.0514991],[-113.9961346,51.0438768],[-113.9954225,51.0388458],[-113.9950379,51.0363484],[-113.9946303,51.0338655],[-113.9937583,51.0290158],[-113.9928342,51.0267784],[-113.9918373,51.0246671],[-113.9907835,51.0225918],[-113.9894151,51.0202032],[-113.9878201,51.0251898],[-113.9871346,51.0274979],[-113.986474,51.0298217],[-113.9861983,51.0309618],[-113.9858606,51.0321754],[-113.9852905,51.0345564],[-113.9850659,51.0355515],[-113.9821912,51.0508549],[-113.9807107,51.0581792],[-113.9763582,51.0672578],[-113.9756311,51.0695768],[-113.9752049,51.0720491],[-113.9750297,51.073609],[-113.9748768,51.0745832],[-113.9742584,51.0809941],[-113.9739089,51.0837341],[-113.9734256,51.086474],[-113.9725629,51.0892139],[-113.9719956,51.0901603],[-113.9709835,51.0913166],[-113.9701423,51.0919533],[-113.9686299,51.0925744],[-113.9654326,51.0933004],[-113.9632908,51.0939636],[-113.9627,51.0943194],[-113.9623652,51.0946911],[-113.9609543,51.0959605],[-113.958937,51.0968418],[-113.9582378,51.0969896],[-113.9565855,51.0974292],[-113.9580495,51.0979879],[-113.9583417,51.0997967],[-113.958717,51.1003065],[-113.9604561,51.1019513],[-113.9613129,51.1029109],[-113.9616772,51.103922],[-113.9624053,51.1056513],[-113.9626679,51.1083915],[-113.9641219,51.111132],[-113.9653016,51.1125973],[-113.9664481,51.1138727],[-113.9670897,51.1166129],[-113.9672415,51.119353],[-113.9669087,51.1216436],[-113.9668049,51.1226071],[-113.9665448,51.1241556],[-113.9664811,51.1248328],[-113.9658186,51.1275727],[-113.9655771,51.1303126],[-113.9657743,51.1330527],[-113.9659278,51.1341137],[-113.9660951,51.1348375],[-113.9662478,51.1357929],[-113.9664301,51.138533],[-113.9663796,51.141273],[-113.9660854,51.1440129],[-113.965081,51.1467526],[-113.9644802,51.1475273],[-113.963242,51.1494921],[-113.9633502,51.1605228],[-113.9633363,51.1631922],[-113.9634521,51.1633283],[-113.9643873,51.1652076],[-113.9670199,51.1662927],[-113.9675912,51.1666858],[-113.9687595,51.1679387],[-113.9692582,51.168674],[-113.9699792,51.1714142],[-113.9701828,51.1741542],[-113.9702128,51.1768942],[-113.9701574,51.1807551],[-113.9701875,51.1812725],[-113.970169,51.1823742],[-113.9702019,51.1834661],[-113.9702857,51.1840754],[-113.9703215,51.1851143],[-113.9704122,51.1860729],[-113.9706426,51.187041],[-113.970734,51.1878544],[-113.9708629,51.1885288],[-113.9715688,51.1903646],[-113.971678,51.1907559],[-113.9719344,51.1911784],[-113.9741023,51.1919726],[-113.9762941,51.1925003],[-113.9795197,51.194049]],[[-113.9938781,51.1715053],[-113.9934118,51.1743633],[-113.9931202,51.1765093],[-113.9929372,51.1774013],[-113.9927166,51.1789958],[-113.992413,51.1804705],[-113.9922723,51.1814567],[-113.9917815,51.1838885],[-113.9907078,51.1886943],[-113.9903479,51.1899871],[-113.9901052,51.1910559],[-113.9893754,51.1936796],[-113.988725,51.1910066],[-113.9876502,51.1862027],[-113.9866633,51.1813437],[-113.9865481,51.1805983],[-113.986193,51.1788996],[-113.9859469,51.1774798],[-113.985291,51.1743268],[-113.9850214,51.1732108],[-113.9839706,51.1720778],[-113.9822934,51.1703922],[-113.9808269,51.1685745],[-113.9806648,51.1682985],[-113.9798572,51.1664445],[-113.9796722,51.1659362],[-113.978437,51.163196],[-113.9777143,51.1623126],[-113.9763102,51.1611529],[-113.9756658,51.1608607],[-113.9722194,51.1602872],[-113.9719533,51.1599694],[-113.9711722,51.1582063],[-113.9710753,51.1577144],[-113.9710951,51.1494943],[-113.9713715,51.1491243],[-113.9719603,51.1484727],[-113.9728912,51.1473398],[-113.9734477,51.1467548],[-113.9746175,51.1440151],[-113.9749864,51.1412751],[-113.9749944,51.1385351],[-113.9745338,51.135795],[-113.9738865,51.1330548],[-113.973613,51.1303147],[-113.9737719,51.1275747],[-113.9742918,51.1248348],[-113.9749506,51.1220949],[-113.9751899,51.1193549],[-113.9751616,51.1186183],[-113.9750754,51.1166149],[-113.974385,51.1138747],[-113.973508,51.1129138],[-113.9720387,51.1111341],[-113.9708335,51.1091181],[-113.9704431,51.1083937],[-113.9700343,51.1056535],[-113.9695563,51.1044437],[-113.9692975,51.10396],[-113.9688211,51.1029132],[-113.9691552,51.1019571],[-113.9693261,51.1012368],[-113.9697714,51.1001734],[-113.9706193,51.0993105],[-113.9719905,51.0985889],[-113.973381,51.0983096],[-113.9751834,51.0981644],[-113.9770405,51.0978745],[-113.9781731,51.0974352],[-113.9793131,51.0965655],[-113.9806952,51.0946956],[-113.9817353,51.0919557],[-113.9822723,51.0902076],[-113.9835977,51.0864759],[-113.9843779,51.0841594],[-113.9850509,51.081915],[-113.9855249,51.0785539],[-113.9856493,51.0778799],[-113.9858731,51.0760327],[-113.9861143,51.0748476],[-113.98632,51.0735738],[-113.9883673,51.0639021],[-113.9889093,51.0615032],[-113.9894062,51.0595955],[-113.9900207,51.0614286],[-113.9902614,51.0623554],[-113.9906788,51.0637537],[-113.9918808,51.068476],[-113.9924545,51.0708544],[-113.9927117,51.0721208],[-113.9930078,51.0732456],[-113.9934878,51.0753501],[-113.9942379,51.0779505],[-113.994338,51.0782568],[-113.9945632,51.078768],[-113.9949857,51.0802193],[-113.9954309,51.0809969],[-113.9959653,51.0823423],[-113.9967222,51.083737],[-113.9969109,51.0844867],[-113.997335,51.086477],[-113.998101,51.0894584],[-113.998218,51.0892171],[-113.998982,51.0870318],[-113.9991326,51.086477],[-114.0003942,51.0851812],[-114.0024516,51.0845027],[-114.0033984,51.0843333],[-114.0056093,51.084488],[-114.0077266,51.0843192],[-114.0104771,51.0837365],[-114.0109065,51.0835818],[-114.011152,51.0834362],[-114.0123633,51.0817595],[-114.0127676,51.0809962],[-114.0133388,51.0796341],[-114.0138854,51.0782561],[-114.0141704,51.0774183],[-114.014762,51.0755159],[-114.0154987,51.0727294],[-114.0163855,51.0667355],[-114.0165575,51.0652242],[-114.0167885,51.0637408],[-114.0168967,51.0626984],[-114.0171842,51.0607506],[-114.0172383,51.0601741],[-114.0183461,51.0526537],[-114.0185339,51.0516774],[-114.0187616,51.0501761],[-114.0190803,51.0485921],[-114.0192207,51.047726],[-114.0198361,51.0449748],[-114.0210146,51.0473721],[-114.0219011,51.0495538],[-114.0227378,51.0517671],[-114.0231092,51.0529148],[-114.0235128,51.0540192],[-114.0241886,51.0561904],[-114.0257365,51.0672938],[-114.0261704,51.0700338],[-114.0268709,51.0738297],[-114.0273592,51.076263],[-114.0279329,51.0786423],[-114.0285515,51.0807929],[-114.028625,51.0809472],[-114.0300135,51.0828131],[-114.031079,51.0837329],[-114.0320572,51.0842659],[-114.0329041,51.0845135],[-114.0342063,51.0845522],[-114.0356525,51.0847407],[-114.0372547,51.0847745],[-114.0390851,51.085318],[-114.040081,51.0864702],[-114.0404195,51.0946902],[-114.0392125,51.0974307],[-114.038538,51.0982321],[-114.0372666,51.0995858],[-114.0367654,51.1001715],[-114.0361303,51.1029118],[-114.0359372,51.1056519],[-114.0360459,51.1083919],[-114.0365461,51.1111317],[-114.0369135,51.1138717],[-114.0372681,51.1193516],[-114.0383143,51.1220913],[-114.0395001,51.1234375],[-114.0406144,51.1248306],[-114.041033,51.1252133],[-114.0416418,51.1257023],[-114.0430206,51.1267027],[-114.0440617,51.1275694],[-114.04448,51.128525],[-114.0459999,51.1295221],[-114.0465415,51.1299679],[-114.0470486,51.1303082],[-114.0468196,51.1308233],[-114.0460017,51.1313253],[-114.0444147,51.1320504],[-114.0421391,51.1333587],[-114.0416492,51.1338574],[-114.0408686,51.1352987],[-114.0406974,51.1357907],[-114.0405595,51.1364778],[-114.0402554,51.1376519],[-114.0400932,51.1385309],[-114.0397352,51.1412711],[-114.0389058,51.1422809],[-114.0373015,51.1428983],[-114.0357898,51.1430614],[-114.0338267,51.143459],[-114.0329461,51.1435819],[-114.032515,51.1437421],[-114.0321018,51.1440134],[-114.0307873,51.1453951],[-114.029781,51.1467541],[-114.0294922,51.1473201],[-114.0285938,51.149417],[-114.0279164,51.1518076],[-114.0271513,51.1549748],[-114.0265187,51.1577149],[-114.0259569,51.1604551],[-114.0250737,51.1654147],[-114.0245216,51.1688478],[-114.0242482,51.1702432],[-114.0239074,51.171201],[-114.0226465,51.1741558],[-114.0211868,51.1777094],[-114.0202477,51.1798586],[-114.0198942,51.1805681],[-114.019132,51.1773747],[-114.0189179,51.1762839],[-114.0186045,51.1749658],[-114.0178504,51.1714166],[-114.0171887,51.1686767],[-114.0163239,51.1659368],[-114.015529,51.1632829],[-114.015393,51.1631114],[-114.0142843,51.1612393],[-114.0129478,51.1604572],[-114.0122794,51.15976],[-114.0111701,51.1583543],[-114.0102684,51.1598903],[-114.0071523,51.1604577],[-114.0067759,51.1604811],[-114.0031727,51.1600069],[-114.0018146,51.1600549],[-113.9989267,51.160458],[-113.9983144,51.160594],[-113.9980981,51.1606764],[-113.9968144,51.1623908],[-113.9963546,51.1631979],[-113.9958013,51.164494],[-113.9952495,51.1659379],[-113.9950076,51.166735],[-113.9944963,51.1686779],[-113.9938781,51.1715053]]]}},{"type":"Feature","id":"nef-0b0b70be71aa","properties":{"id":"nef-0b0b70be71aa","nefIndex":30.0,"sourceFieldName":"dblevel","label":"NEF 30","sourceDatasetId":"g5qu-w8fb"},"geometry":{"type":"Polygon","coordinates":[[[-113.9839706,51.1720778],[-113.9850214,51.1732108],[-113.985291,51.1743268],[-113.9859469,51.1774798],[-113.986193,51.1788996],[-113.9865481,51.1805983],[-113.9866633,51.1813437],[-113.9876502,51.1862027],[-113.988725,51.1910066],[-113.9893754,51.1936796],[-113.9901052,51.1910559],[-113.9903479,51.1899871],[-113.9907078,51.1886943],[-113.9917815,51.1838885],[-113.9922723,51.1814567],[-113.992413,51.1804705],[-113.9927166,51.1789958],[-113.9929372,51.1774013],[-113.9931202,51.1765093],[-113.9934118,51.1743633],[-113.9938938,51.1714178],[-113.9944963,51.1686779],[-113.9950076,51.166735],[-113.9952495,51.1659379],[-113.9958013,51.164494],[-113.9963546,51.1631979],[-113.9968144,51.1623908],[-113.9980981,51.1606764],[-113.9983144,51.160594],[-113.9989267,51.160458],[-114.0018146,51.1600549],[-114.0031727,51.1600069],[-114.0067759,51.1604811],[-114.0071523,51.1604577],[-114.0102684,51.1598903],[-114.0111701,51.1583543],[-114.0122794,51.15976],[-114.0129478,51.1604572],[-114.0142843,51.1612393],[-114.015393,51.1631114],[-114.015529,51.1632829],[-114.0163239,51.1659368],[-114.0171887,51.1686767],[-114.0178504,51.1714166],[-114.0186045,51.1749658],[-114.0189179,51.1762839],[-114.019132,51.1773747],[-114.0198942,51.1805681],[-114.0202477,51.1798586],[-114.0211868,51.1777094],[-114.0226465,51.1741558],[-114.0239074,51.171201],[-114.0242482,51.1702432],[-114.0245216,51.1688478],[-114.0250737,51.1654147],[-114.0259569,51.1604551],[-114.0265187,51.1577149],[-114.0271513,51.1549748],[-114.0279164,51.1518076],[-114.0285938,51.149417],[-114.0294922,51.1473201],[-114.029781,51.1467541],[-114.0307873,51.1453951],[-114.0321018,51.1440134],[-114.032515,51.1437421],[-114.0329461,51.1435819],[-114.0338267,51.143459],[-114.0357898,51.1430614],[-114.0373015,51.1428983],[-114.0389058,51.1422809],[-114.0397352,51.1412711],[-114.0400932,51.1385309],[-114.0402554,51.1376519],[-114.0405595,51.1364778],[-114.0406974,51.1357907],[-114.0408686,51.1352987],[-114.0416492,51.1338574],[-114.0421391,51.1333587],[-114.0444147,51.1320504],[-114.0460017,51.1313253],[-114.0468196,51.1308233],[-114.0470486,51.1303082],[-114.0465415,51.1299679],[-114.0459999,51.1295221],[-114.04448,51.128525],[-114.0440617,51.1275694],[-114.0430206,51.1267027],[-114.0416418,51.1257023],[-114.041033,51.1252133],[-114.0406144,51.1248306],[-114.0395001,51.1234375],[-114.0383143,51.1220913],[-114.0372681,51.1193516],[-114.0369135,51.1138717],[-114.0365461,51.1111317],[-114.0360459,51.1083919],[-114.0359372,51.1056519],[-114.0361303,51.1029118],[-114.0367654,51.1001715],[-114.0372666,51.0995858],[-114.038538,51.0982321],[-114.0392125,51.0974307],[-114.0404195,51.0946902],[-114.040081,51.0864702],[-114.0390851,51.085318],[-114.0372547,51.0847745],[-114.0356525,51.0847407],[-114.0342063,51.0845522],[-114.0329041,51.0845135],[-114.0320572,51.0842659],[-114.031079,51.0837329],[-114.0300135,51.0828131],[-114.028625,51.0809472],[-114.0285515,51.0807929],[-114.0279329,51.0786423],[-114.0273592,51.076263],[-114.0268709,51.0738297],[-114.0261704,51.0700338],[-114.0257365,51.0672938],[-114.0241886,51.0561904],[-114.0235128,51.0540192],[-114.0231092,51.0529148],[-114.0227378,51.0517671],[-114.0219011,51.0495538],[-114.0210146,51.0473721],[-114.0198361,51.0449748],[-114.0192207,51.047726],[-114.0190803,51.0485921],[-114.0187616,51.0501761],[-114.0185339,51.0516774],[-114.0183461,51.0526537],[-114.0172383,51.0601741],[-114.0171842,51.0607506],[-114.0168967,51.0626984],[-114.0167885,51.0637408],[-114.0165575,51.0652242],[-114.0163855,51.0667355],[-114.0154987,51.0727294],[-114.014762,51.0755159],[-114.0141704,51.0774183],[-114.0138854,51.0782561],[-114.0133388,51.0796341],[-114.0127676,51.0809962],[-114.0123633,51.0817595],[-114.011152,51.0834362],[-114.0109065,51.0835818],[-114.0104771,51.0837365],[-114.0077266,51.0843192],[-114.0056093,51.084488],[-114.0033984,51.0843333],[-114.0024516,51.0845027],[-114.0003942,51.0851812],[-113.9991326,51.086477],[-113.998982,51.0870318],[-113.998218,51.0892171],[-113.998101,51.0894584],[-113.997335,51.086477],[-113.9969109,51.0844867],[-113.9967222,51.083737],[-113.9959653,51.0823423],[-113.9954309,51.0809969],[-113.9949857,51.0802193],[-113.9945632,51.078768],[-113.994338,51.0782568],[-113.9942379,51.0779505],[-113.9934878,51.0753501],[-113.9930078,51.0732456],[-113.9927117,51.0721208],[-113.9924545,51.0708544],[-113.9918808,51.068476],[-113.9906788,51.0637537],[-113.9902614,51.0623554],[-113.9900207,51.0614286],[-113.9894062,51.0595955],[-113.9889093,51.0615032],[-113.9883673,51.0639021],[-113.98632,51.0735738],[-113.9861143,51.0748476],[-113.9858731,51.0760327],[-113.9856493,51.0778799],[-113.9855249,51.0785539],[-113.9850509,51.081915],[-113.9843779,51.0841594],[-113.9835977,51.0864759],[-113.9822723,51.0902076],[-113.9817353,51.0919557],[-113.9806952,51.0946956],[-113.9793131,51.0965655],[-113.9781731,51.0974352],[-113.9770405,51.0978745],[-113.9751834,51.0981644],[-113.973381,51.0983096],[-113.9719905,51.0985889],[-113.9706193,51.0993105],[-113.9697714,51.1001734],[-113.9693261,51.1012368],[-113.9691552,51.1019571],[-113.9688211,51.1029132],[-113.9692975,51.10396],[-113.9695563,51.1044437],[-113.9700343,51.1056535],[-113.9704431,51.1083937],[-113.9708335,51.1091181],[-113.9720387,51.1111341],[-113.973508,51.1129138],[-113.974385,51.1138747],[-113.9750754,51.1166149],[-113.9751616,51.1186183],[-113.9751899,51.1193549],[-113.9749506,51.1220949],[-113.9742918,51.1248348],[-113.9737719,51.1275747],[-113.973613,51.1303147],[-113.9738865,51.1330548],[-113.9745338,51.135795],[-113.9749944,51.1385351],[-113.9749864,51.1412751],[-113.9746175,51.1440151],[-113.9734477,51.1467548],[-113.9728912,51.1473398],[-113.9719603,51.1484727],[-113.9713715,51.1491243],[-113.9710951,51.1494943],[-113.9710753,51.1577144],[-113.9711722,51.1582063],[-113.9719533,51.1599694],[-113.9722194,51.1602872],[-113.9756658,51.1608607],[-113.9763102,51.1611529],[-113.9777143,51.1623126],[-113.978437,51.163196],[-113.9796722,51.1659362],[-113.9798572,51.1664445],[-113.9806648,51.1682985],[-113.9808269,51.1685745],[-113.9822934,51.1703922],[-113.9839706,51.1720778]],[[-113.9922307,51.1604577],[-113.9915335,51.1631977],[-113.9907112,51.1667735],[-113.9903223,51.168086],[-113.9900847,51.1691199],[-113.9893805,51.1715383],[-113.9882609,51.167973],[-113.9878879,51.1668765],[-113.9872075,51.1645646],[-113.9865441,51.162242],[-113.9863108,51.1612655],[-113.9859183,51.1598958],[-113.9854003,51.157717],[-113.9850267,51.156964],[-113.9835757,51.1568043],[-113.982582,51.1565141],[-113.9806697,51.1564127],[-113.9790625,51.1559869],[-113.9778227,51.1549758],[-113.9775372,51.1542063],[-113.9775582,51.153018],[-113.9773641,51.1522357],[-113.977354,51.1494957],[-113.9784154,51.1480758],[-113.9795,51.1467561],[-113.9797268,51.1461603],[-113.9806806,51.1440162],[-113.9810512,51.1412763],[-113.9811363,51.1385363],[-113.9807217,51.1330827],[-113.980595,51.1303161],[-113.9806316,51.1275761],[-113.9809047,51.122235],[-113.9810083,51.119356],[-113.9807952,51.116616],[-113.9801192,51.1138758],[-113.9788705,51.1122797],[-113.9780574,51.1111354],[-113.9767787,51.1083951],[-113.9763127,51.1056387],[-113.9768336,51.1032259],[-113.97777,51.1029152],[-113.9799163,51.1024271],[-113.981838,51.1021946],[-113.9840847,51.102312],[-113.9850444,51.1020504],[-113.9857557,51.1001764],[-113.9865151,51.0965115],[-113.9866461,51.0957037],[-113.9876754,51.090871],[-113.9894006,51.084028],[-113.9900468,51.0860693],[-113.9902677,51.0870232],[-113.9907024,51.0883962],[-113.9911403,51.0903133],[-113.9912824,51.0907707],[-113.9918135,51.0931761],[-113.9923075,51.0956048],[-113.9924464,51.0966166],[-113.9931695,51.1001771],[-113.9937485,51.1017748],[-113.9948831,51.1022028],[-113.9970781,51.1022736],[-113.9981005,51.1024624],[-114.0024525,51.1018999],[-114.0038902,51.1020121],[-114.0049928,51.1029172],[-114.0055497,51.1056572],[-114.0068054,51.1082222],[-114.0086104,51.1067935],[-114.0095897,51.105657],[-114.0096968,51.1047376],[-114.0095816,51.1039087],[-114.009667,51.1029169],[-114.0092281,51.1017029],[-114.0091029,51.1014698],[-114.0087526,51.100177],[-114.0080294,51.0994055],[-114.0080949,51.0982498],[-114.0077633,51.097437],[-114.0076281,51.0969179],[-114.0073955,51.0950698],[-114.0073116,51.094697],[-114.0075492,51.0919569],[-114.0079667,51.091224],[-114.0080729,51.0900167],[-114.009347,51.0892167],[-114.0105184,51.0888168],[-114.0120214,51.0886698],[-114.0150345,51.0889204],[-114.0155041,51.0888383],[-114.0164674,51.087083],[-114.0166922,51.0864759],[-114.0173606,51.0837357],[-114.0190993,51.075043],[-114.0198475,51.0715615],[-114.0210763,51.0747416],[-114.0218239,51.0770113],[-114.0225346,51.0793042],[-114.0227263,51.0800658],[-114.0231901,51.0816319],[-114.0235673,51.0833344],[-114.024204,51.0856199],[-114.024448,51.086321],[-114.0245378,51.0864745],[-114.0252233,51.0871158],[-114.0260379,51.08806],[-114.0279562,51.0888357],[-114.0285566,51.0891186],[-114.0319695,51.0886223],[-114.032907,51.0886069],[-114.0335939,51.0887798],[-114.0339866,51.0892122],[-114.0340994,51.0946922],[-114.0328738,51.0974326],[-114.0315677,51.099325],[-114.0309132,51.1001732],[-114.0302857,51.1029134],[-114.0300031,51.1056535],[-114.0300927,51.1083935],[-114.0303142,51.1111335],[-114.030451,51.1138735],[-114.0304825,51.1166136],[-114.0305745,51.1193536],[-114.0313698,51.1220934],[-114.0318496,51.122774],[-114.0336839,51.1243599],[-114.0340757,51.1248327],[-114.0341218,51.1255806],[-114.0329341,51.1266896],[-114.0322152,51.1275732],[-114.0323674,51.1279303],[-114.0324672,51.1300179],[-114.0329374,51.1314199],[-114.0335946,51.13264],[-114.033705,51.1330529],[-114.0334602,51.1361197],[-114.0333369,51.138533],[-114.0332011,51.1386957],[-114.0329427,51.1387806],[-114.0325084,51.1388065],[-114.0288396,51.1386931],[-114.0285872,51.1387137],[-114.0273955,51.1392845],[-114.0262093,51.1397785],[-114.0257298,51.1403331],[-114.0247256,51.1412752],[-114.0245961,51.1415035],[-114.0242337,51.1424772],[-114.0236739,51.1443682],[-114.0232481,51.1461344],[-114.0227793,51.1476721],[-114.0225746,51.1484502],[-114.0218287,51.1507205],[-114.0210237,51.1529538],[-114.0198836,51.1557315],[-114.0190203,51.1527785],[-114.0187117,51.1515006],[-114.0184037,51.1504257],[-114.0178757,51.1480173],[-114.0171014,51.1440166],[-114.0164146,51.1412767],[-114.0162418,51.1408236],[-114.015521,51.1394659],[-114.0143582,51.1392684],[-114.0125522,51.1394095],[-114.0100955,51.1392105],[-114.0083237,51.1385375],[-114.0075976,51.1380419],[-114.0074387,51.1361934],[-114.0072195,51.1357975],[-114.0069953,51.1330575],[-114.0078475,51.130971],[-114.00823,51.1303174],[-114.009097,51.1290174],[-114.0103783,51.1275772],[-114.0109837,51.1248371],[-114.0101841,51.1220972],[-114.0083002,51.1211578],[-114.0068072,51.1201208],[-114.0024535,51.1203685],[-114.0010281,51.1212006],[-114.0003405,51.1220976],[-114.0001685,51.1248376],[-114.0002931,51.1275777],[-114.0006656,51.1303177],[-114.0007511,51.1313892],[-114.0008583,51.1320537],[-114.0009466,51.1330577],[-114.0000485,51.1385378],[-114.0001079,51.1425416],[-114.00015,51.1427275],[-114.0001595,51.1440178],[-114.0005074,51.1452427],[-114.0005202,51.145541],[-114.0007871,51.1467579],[-114.0013367,51.1474612],[-114.002455,51.1493068],[-114.0026378,51.1494979],[-114.0024551,51.1514111],[-114.0024092,51.1522379],[-114.0023834,51.152283],[-114.002154,51.1547885],[-114.0018513,51.1549779],[-113.9993892,51.1557898],[-113.996348,51.1560785],[-113.9953574,51.1559942],[-113.9937411,51.1563117],[-113.9931761,51.1573625],[-113.9930214,51.1577177],[-113.9922307,51.1604577]]]}},{"type":"Feature","id":"nef-dbf51000690f","properties":{"id":"nef-dbf51000690f","nefIndex":35.0,"sourceFieldName":"dblevel","label":"NEF 35","sourceDatasetId":"g5qu-w8fb"},"geometry":{"type":"Polygon","coordinates":[[[-113.9859183,51.1598958],[-113.9863108,51.1612655],[-113.9865441,51.162242],[-113.9876043,51.1659373],[-113.9893805,51.1715383],[-113.9900847,51.1691199],[-113.9903223,51.168086],[-113.9907112,51.1667735],[-113.9915335,51.1631977],[-113.9922307,51.1604577],[-113.9930214,51.1577177],[-113.9931761,51.1573625],[-113.9937411,51.1563117],[-113.9953574,51.1559942],[-113.996348,51.1560785],[-113.9993892,51.1557898],[-114.0018513,51.1549779],[-114.002154,51.1547885],[-114.0023834,51.152283],[-114.0024092,51.1522379],[-114.0024551,51.1514111],[-114.0026378,51.1494979],[-114.002455,51.1493068],[-114.0013367,51.1474612],[-114.0007871,51.1467579],[-114.0005202,51.145541],[-114.0005074,51.1452427],[-114.0001595,51.1440178],[-114.00015,51.1427275],[-114.0001079,51.1425416],[-114.0000485,51.1385378],[-114.0009466,51.1330577],[-114.0008583,51.1320537],[-114.0007511,51.1313892],[-114.0006656,51.1303177],[-114.0002931,51.1275777],[-114.0001685,51.1248376],[-114.0003405,51.1220976],[-114.0010281,51.1212006],[-114.0024535,51.1203685],[-114.0068072,51.1201208],[-114.0083002,51.1211578],[-114.0101841,51.1220972],[-114.0109837,51.1248371],[-114.0103783,51.1275772],[-114.009097,51.1290174],[-114.00823,51.1303174],[-114.0078475,51.130971],[-114.0069953,51.1330575],[-114.0072195,51.1357975],[-114.0074387,51.1361934],[-114.0075976,51.1380419],[-114.0083237,51.1385375],[-114.0100955,51.1392105],[-114.0125522,51.1394095],[-114.0143582,51.1392684],[-114.015521,51.1394659],[-114.0162418,51.1408236],[-114.0164146,51.1412767],[-114.0171014,51.1440166],[-114.0178757,51.1480173],[-114.0184037,51.1504257],[-114.0187117,51.1515006],[-114.0190203,51.1527785],[-114.0198836,51.1557315],[-114.0210237,51.1529538],[-114.0218287,51.1507205],[-114.0225746,51.1484502],[-114.0227793,51.1476721],[-114.0232481,51.1461344],[-114.0236739,51.1443682],[-114.0242337,51.1424772],[-114.0245961,51.1415035],[-114.0247256,51.1412752],[-114.0257298,51.1403331],[-114.0262093,51.1397785],[-114.0273955,51.1392845],[-114.0285872,51.1387137],[-114.0288396,51.1386931],[-114.0325084,51.1388065],[-114.0329427,51.1387806],[-114.0332011,51.1386957],[-114.0333369,51.138533],[-114.0334602,51.1361197],[-114.033705,51.1330529],[-114.0335946,51.13264],[-114.0329374,51.1314199],[-114.0324672,51.1300179],[-114.0323674,51.1279303],[-114.0322152,51.1275732],[-114.0329341,51.1266896],[-114.0341218,51.1255806],[-114.0340757,51.1248327],[-114.0336839,51.1243599],[-114.0318496,51.122774],[-114.0313698,51.1220934],[-114.0305745,51.1193536],[-114.0304825,51.1166136],[-114.030451,51.1138735],[-114.0303142,51.1111335],[-114.0300927,51.1083935],[-114.0300031,51.1056535],[-114.0302857,51.1029134],[-114.0309132,51.1001732],[-114.0315677,51.099325],[-114.0328738,51.0974326],[-114.0340994,51.0946922],[-114.0339866,51.0892122],[-114.0335939,51.0887798],[-114.032907,51.0886069],[-114.0319695,51.0886223],[-114.0285566,51.0891186],[-114.0279562,51.0888357],[-114.0260379,51.08806],[-114.0252233,51.0871158],[-114.0245378,51.0864745],[-114.024448,51.086321],[-114.024204,51.0856199],[-114.0235673,51.0833344],[-114.0231901,51.0816319],[-114.0227263,51.0800658],[-114.0225346,51.0793042],[-114.0218239,51.0770113],[-114.0210763,51.0747416],[-114.0198475,51.0715615],[-114.0190993,51.075043],[-114.0173606,51.0837357],[-114.0166922,51.0864759],[-114.0164674,51.087083],[-114.0155041,51.0888383],[-114.0150345,51.0889204],[-114.0120214,51.0886698],[-114.0105184,51.0888168],[-114.009347,51.0892167],[-114.0080729,51.0900167],[-114.0079667,51.091224],[-114.0075492,51.0919569],[-114.0073116,51.094697],[-114.0073955,51.0950698],[-114.0076281,51.0969179],[-114.0077633,51.097437],[-114.0080949,51.0982498],[-114.0080294,51.0994055],[-114.0087526,51.100177],[-114.0091029,51.1014698],[-114.0092281,51.1017029],[-114.009667,51.1029169],[-114.0095816,51.1039087],[-114.0096968,51.1047376],[-114.0095897,51.105657],[-114.0086104,51.1067935],[-114.0068054,51.1082222],[-114.0055497,51.1056572],[-114.0049928,51.1029172],[-114.0038902,51.1020121],[-114.0024525,51.1018999],[-113.9981005,51.1024624],[-113.9970781,51.1022736],[-113.9948831,51.1022028],[-113.9937485,51.1017748],[-113.9931695,51.1001771],[-113.9924464,51.0966166],[-113.9923075,51.0956048],[-113.9918135,51.0931761],[-113.9912824,51.0907707],[-113.9911403,51.0903133],[-113.9907024,51.0883962],[-113.9902677,51.0870232],[-113.9900468,51.0860693],[-113.9894006,51.084028],[-113.9876754,51.090871],[-113.9866461,51.0957037],[-113.9865151,51.0965115],[-113.9857557,51.1001764],[-113.9850444,51.1020504],[-113.9840847,51.102312],[-113.981838,51.1021946],[-113.9799163,51.1024271],[-113.97777,51.1029152],[-113.9768336,51.1032259],[-113.9763127,51.1056387],[-113.9767787,51.1083951],[-113.9780574,51.1111354],[-113.9788705,51.1122797],[-113.9801192,51.1138758],[-113.9807952,51.116616],[-113.9810083,51.119356],[-113.9809047,51.122235],[-113.9806316,51.1275761],[-113.980595,51.1303161],[-113.9807217,51.1330827],[-113.9811363,51.1385363],[-113.9810512,51.1412763],[-113.9806806,51.1440162],[-113.9797268,51.1461603],[-113.9795,51.1467561],[-113.9784154,51.1480758],[-113.977354,51.1494957],[-113.9773641,51.1522357],[-113.9775582,51.153018],[-113.9775372,51.1542063],[-113.9778227,51.1549758],[-113.9790625,51.1559869],[-113.9806697,51.1564127],[-113.982582,51.1565141],[-113.9835757,51.1568043],[-113.9850267,51.156964],[-113.9854003,51.157717],[-113.9859183,51.1598958]],[[-113.9896254,51.1575178],[-113.9893065,51.158477],[-113.9890548,51.1577173],[-113.9882146,51.1556657],[-113.9878877,51.1549767],[-113.9867201,51.1538663],[-113.9849565,51.1531065],[-113.9838401,51.1529367],[-113.9826686,51.1522339],[-113.9821251,51.1512758],[-113.9821263,51.1504513],[-113.98181,51.1494934],[-113.982782,51.148122],[-113.9838087,51.1467545],[-113.9840344,51.1461687],[-113.9849687,51.1440632],[-113.9851937,51.1411362],[-113.9852372,51.1386995],[-113.9852735,51.1383484],[-113.9852557,51.1359687],[-113.985303,51.1355921],[-113.9852803,51.1332419],[-113.9853267,51.1328395],[-113.985335,51.1303151],[-113.9852962,51.1277672],[-113.9852592,51.1274065],[-113.9852449,51.1249925],[-113.9852035,51.1247038],[-113.9852031,51.1222238],[-113.9851735,51.121985],[-113.9851515,51.1194489],[-113.9850063,51.1164202],[-113.9843114,51.1138744],[-113.9831899,51.1122806],[-113.9824354,51.1111333],[-113.9812713,51.1083926],[-113.9817276,51.1077243],[-113.9816543,51.1062739],[-113.984819,51.1057815],[-113.9851246,51.1056547],[-113.9871131,51.1042316],[-113.9881167,51.1029162],[-113.9890308,51.1001766],[-113.9893819,51.0988523],[-113.9897422,51.100177],[-113.9906587,51.1029175],[-113.9915795,51.1042701],[-113.9929979,51.1056586],[-113.9934015,51.1058628],[-113.9943465,51.1060504],[-113.9963515,51.1056602],[-113.9977129,51.1054308],[-113.9980782,51.1054067],[-113.9983756,51.1054738],[-113.9985648,51.1056611],[-113.9986083,51.1059952],[-113.9986632,51.1080312],[-113.9987188,51.1084012],[-113.9985928,51.1087274],[-113.9980737,51.1096068],[-113.9975894,51.1111408],[-113.9973331,51.1116055],[-113.9967098,51.1130242],[-113.9961235,51.1138802],[-113.9959129,51.1152639],[-113.9956521,51.11662],[-113.9953656,51.1176609],[-113.9952429,51.1183955],[-113.9950065,51.1193598],[-113.9949081,51.1201146],[-113.9948185,51.1214003],[-113.9947335,51.1220997],[-113.9945175,51.1275796],[-113.9944605,51.1298395],[-113.9944482,51.1330597],[-113.994367,51.1385397],[-113.9944907,51.1412798],[-113.9948919,51.1432586],[-113.9950157,51.14402],[-113.9956243,51.1455367],[-113.9960524,51.1467605],[-113.9966538,51.1476281],[-113.9977934,51.1495013],[-113.9976287,51.1497539],[-113.9975354,51.1519313],[-113.9965915,51.1522408],[-113.9943898,51.1526921],[-113.9936705,51.152733],[-113.9917639,51.1537804],[-113.9906552,51.1549781],[-113.9903418,51.1556268],[-113.9896254,51.1575178]],[[-114.0158691,51.1141313],[-114.0159343,51.1114311],[-114.0159019,51.110884],[-114.0159261,51.1086847],[-114.0158884,51.1081537],[-114.0158951,51.1059239],[-114.0157227,51.1029271],[-114.0154906,51.1010916],[-114.0152311,51.1001869],[-114.0138384,51.0984879],[-114.0131155,51.0974462],[-114.0127767,51.096417],[-114.012288,51.0947059],[-114.0129918,51.093543],[-114.0130163,51.0931446],[-114.0154858,51.0919668],[-114.0184192,51.0910674],[-114.0194633,51.089471],[-114.0197018,51.0892279],[-114.01985,51.0887106],[-114.0200387,51.0892279],[-114.0202578,51.0894851],[-114.0213109,51.0910474],[-114.0225978,51.0919686],[-114.023765,51.0922421],[-114.0241989,51.0922398],[-114.0248021,51.0923489],[-114.0278608,51.0915354],[-114.0285503,51.0915129],[-114.0290854,51.0916329],[-114.0294019,51.0919699],[-114.0294288,51.0947099],[-114.028548,51.097075],[-114.0284439,51.0974498],[-114.0273085,51.0994098],[-114.0268122,51.1001896],[-114.0261943,51.1029295],[-114.0259016,51.1056695],[-114.0258771,51.1073482],[-114.0258265,51.1166296],[-114.0259302,51.1193697],[-114.0265392,51.1206278],[-114.0265942,51.1208865],[-114.0270492,51.1221099],[-114.0269329,51.1231194],[-114.0272379,51.1240326],[-114.0270615,51.1248499],[-114.0269124,51.1258716],[-114.0266718,51.126417],[-114.0265585,51.1275899],[-114.0270377,51.128532],[-114.0274712,51.1296611],[-114.0277733,51.1303301],[-114.0285332,51.1325124],[-114.0287949,51.1330703],[-114.0287272,51.1358103],[-114.0286588,51.1358903],[-114.0285318,51.135927],[-114.0283456,51.1359274],[-114.0249706,51.1353103],[-114.0241768,51.1354848],[-114.0236777,51.1354954],[-114.022232,51.1358091],[-114.0210533,51.1365841],[-114.0198199,51.138304],[-114.0185839,51.1365866],[-114.0154663,51.1357342],[-114.013421,51.1343542],[-114.0127505,51.1330666],[-114.0139796,51.1303269],[-114.0143661,51.1296321],[-114.0154718,51.1279748],[-114.0155888,51.1275874],[-114.0158456,51.1248474],[-114.015758,51.1221073],[-114.0156435,51.1220018],[-114.0154759,51.1219845],[-114.0148292,51.1217],[-114.0127987,51.1210518],[-114.0123315,51.1201265],[-114.0116531,51.1193661],[-114.0119347,51.1188563],[-114.0111255,51.1176843],[-114.0093909,51.118274],[-114.0087535,51.1181178],[-114.0067715,51.1182841],[-114.0047182,51.1179162],[-114.0032599,51.1171524],[-114.0024194,51.1167785],[-114.0022033,51.1167588],[-114.0019634,51.1166227],[-114.002147,51.1164511],[-114.0024198,51.1164095],[-114.0040527,51.1149103],[-114.0067754,51.1138498],[-114.0095087,51.1149044],[-114.0111268,51.1159584],[-114.0123858,51.1158339],[-114.0148195,51.116627],[-114.0153435,51.1167128],[-114.0155994,51.1166272],[-114.0158691,51.1141313]]]}},{"type":"Feature","id":"nef-ca868a0b63e7","properties":{"id":"nef-ca868a0b63e7","nefIndex":40.0,"sourceFieldName":"dblevel","label":"NEF 40","sourceDatasetId":"g5qu-w8fb"},"geometry":{"type":"Polygon","coordinates":[[[-114.0154663,51.1357342],[-114.0185839,51.1365866],[-114.0198199,51.138304],[-114.0210533,51.1365841],[-114.022232,51.1358091],[-114.0236777,51.1354954],[-114.0241768,51.1354848],[-114.0249706,51.1353103],[-114.0283456,51.1359274],[-114.0285318,51.135927],[-114.0286588,51.1358903],[-114.0287272,51.1358103],[-114.0287949,51.1330703],[-114.0285332,51.1325124],[-114.0277733,51.1303301],[-114.0274712,51.1296611],[-114.0270377,51.128532],[-114.0265585,51.1275899],[-114.0266718,51.126417],[-114.0269124,51.1258716],[-114.0270615,51.1248499],[-114.0272379,51.1240326],[-114.0269329,51.1231194],[-114.0270492,51.1221099],[-114.0265942,51.1208865],[-114.0265392,51.1206278],[-114.0259302,51.1193697],[-114.0258265,51.1166296],[-114.0259016,51.1056695],[-114.0261943,51.1029295],[-114.0268122,51.1001896],[-114.0273085,51.0994098],[-114.0284439,51.0974498],[-114.028548,51.097075],[-114.0294288,51.0947099],[-114.0294019,51.0919699],[-114.0290854,51.0916329],[-114.0285503,51.0915129],[-114.0278608,51.0915354],[-114.0248021,51.0923489],[-114.0241989,51.0922398],[-114.023765,51.0922421],[-114.0225978,51.0919686],[-114.0213109,51.0910474],[-114.0202578,51.0894851],[-114.0200387,51.0892279],[-114.01985,51.0887106],[-114.0197018,51.0892279],[-114.0194633,51.089471],[-114.0184192,51.0910674],[-114.0154858,51.0919668],[-114.0130163,51.0931446],[-114.0129918,51.093543],[-114.012288,51.0947059],[-114.0127767,51.096417],[-114.0131155,51.0974462],[-114.0138384,51.0984879],[-114.0152311,51.1001869],[-114.0154906,51.1010916],[-114.0157351,51.1030819],[-114.0158951,51.1059239],[-114.0158884,51.1081537],[-114.0159261,51.1086847],[-114.0159019,51.110884],[-114.0159343,51.1114311],[-114.0158866,51.1138873],[-114.0155994,51.1166272],[-114.0153435,51.1167128],[-114.0148195,51.116627],[-114.0123858,51.1158339],[-114.0111268,51.1159584],[-114.0095087,51.1149044],[-114.0067754,51.1138498],[-114.0040527,51.1149103],[-114.0024198,51.1164095],[-114.002147,51.1164511],[-114.0019634,51.1166227],[-114.0022033,51.1167588],[-114.0024194,51.1167785],[-114.0032599,51.1171524],[-114.0047182,51.1179162],[-114.0067715,51.1182841],[-114.0087535,51.1181178],[-114.0093909,51.118274],[-114.0111255,51.1176843],[-114.0119347,51.1188563],[-114.0116531,51.1193661],[-114.0123315,51.1201265],[-114.0127987,51.1210518],[-114.0148292,51.1217],[-114.0154759,51.1219845],[-114.0156435,51.1220018],[-114.015758,51.1221073],[-114.0158456,51.1248474],[-114.0155888,51.1275874],[-114.0154718,51.1279748],[-114.0143661,51.1296321],[-114.0139796,51.1303269],[-114.0127505,51.1330666],[-114.013421,51.1343542],[-114.0154663,51.1357342]]]}},{"type":"Feature","id":"nef-04c5d0887b7d","properties":{"id":"nef-04c5d0887b7d","nefIndex":40.0,"sourceFieldName":"dblevel","label":"NEF 40","sourceDatasetId":"g5qu-w8fb"},"geometry":{"type":"Polygon","coordinates":[[[-113.9816543,51.1062739],[-113.9817276,51.1077243],[-113.9812713,51.1083926],[-113.9824354,51.1111333],[-113.9831899,51.1122806],[-113.9843114,51.1138744],[-113.9850063,51.1164202],[-113.9851515,51.1194489],[-113.9851735,51.121985],[-113.9852031,51.1222238],[-113.9852035,51.1247038],[-113.9852449,51.1249925],[-113.9852592,51.1274065],[-113.9852962,51.1277672],[-113.985335,51.1303151],[-113.9853267,51.1328395],[-113.9852803,51.1332419],[-113.985303,51.1355921],[-113.9852557,51.1359687],[-113.9852735,51.1383484],[-113.9852372,51.1386995],[-113.9851937,51.1411362],[-113.9849687,51.1440632],[-113.9840344,51.1461687],[-113.9838087,51.1467545],[-113.982782,51.148122],[-113.98181,51.1494934],[-113.9821263,51.1504513],[-113.9821251,51.1512758],[-113.9826686,51.1522339],[-113.9838401,51.1529367],[-113.9849565,51.1531065],[-113.9867201,51.1538663],[-113.9878877,51.1549767],[-113.9882146,51.1556657],[-113.9890548,51.1577173],[-113.9893065,51.158477],[-113.9895381,51.1577175],[-113.9903418,51.1556268],[-113.9906552,51.1549781],[-113.9917639,51.1537804],[-113.9936705,51.152733],[-113.9943898,51.1526921],[-113.9965915,51.1522408],[-113.9975354,51.1519313],[-113.9976287,51.1497539],[-113.9977934,51.1495013],[-113.9966538,51.1476281],[-113.9960524,51.1467605],[-113.9956243,51.1455367],[-113.9950157,51.14402],[-113.9948919,51.1432586],[-113.9944907,51.1412798],[-113.994367,51.1385397],[-113.9944482,51.1330597],[-113.9944605,51.1298395],[-113.9945332,51.1270557],[-113.9947335,51.1220997],[-113.9948185,51.1214003],[-113.9949081,51.1201146],[-113.9950065,51.1193598],[-113.9952429,51.1183955],[-113.9953656,51.1176609],[-113.9956521,51.11662],[-113.9959129,51.1152639],[-113.9961235,51.1138802],[-113.9967098,51.1130242],[-113.9973331,51.1116055],[-113.9975894,51.1111408],[-113.9980737,51.1096068],[-113.9985928,51.1087274],[-113.9987188,51.1084012],[-113.9986632,51.1080312],[-113.9986083,51.1059952],[-113.9985648,51.1056611],[-113.9983756,51.1054738],[-113.9980782,51.1054067],[-113.9977129,51.1054308],[-113.9963515,51.1056602],[-113.9943465,51.1060504],[-113.9934015,51.1058628],[-113.9929979,51.1056586],[-113.9915795,51.1042701],[-113.9906587,51.1029175],[-113.9897422,51.100177],[-113.9893819,51.0988523],[-113.9890308,51.1001766],[-113.9881167,51.1029162],[-113.9871131,51.1042316],[-113.9851246,51.1056547],[-113.984819,51.1057815],[-113.9816543,51.1062739]]]}}]}
